ID,Name,EnglishName,Abbreviation,DirectorateID,Directorate,OracleCode,OracleAreaCode,BedCapacity,TemporaryBeds,DeliveryUnit,CityID,City,TypeID,Type,CategoryID,Category,GroupID,Group,InititalBedCapacity,OverallBedCapacity,OpeningYear,NewTransferYear,Operation,Classification,BuildingStatus,LastUpdated,PhotoExtenstion,Phone,Fax,HospitalManagerUserName,Email,WebSite,Long,Lat,Longitude,Latitude,Icon,ImageUrl,WorkingHours
53,مستشفى الملك فهد بجدة,King Fahad Hospital,KFHJED,1,,20001,26,628,288,0,5,جدة,1,,2,,1,,711,1077,1399,1399,3,2,2,2023-11-12T16:37:56.417,,00966126606111,00966126697047,,jed-hos-kfh@moh.gov.sa,,,,39.16660309,21.54332967,https://eservices.moh.gov.sa/hospitals/assets/Styles/assets/global/img/hospital.png,,
54,مستشفى الملك عبد العزيز,King Abdulaziz Hospital,KAHOC,1,,,26,436,178,1,5,جدة,1,,1,,1,,425,,1410,1410,2,2,2,2024-11-03T12:09:55.983,,00966126375555,00966126364674,,jed-hos-kah@moh.gov.sa,,,,39.20670748,21.44424117,https://eservices.moh.gov.sa/hospitals/assets/Styles/assets/global/img/hospital.png,,
55,مستشفى الولادة والأطفال بالمساعدية,Maternity and Children Hospital Musaediyah,MCH,1,,20004,26,254,310,1,5,جدة,1,,3,,1,,206,516,1397,0,1,1,4,2022-01-18T09:40:34.667,,00966126652600,00966126653517,smaqel,jed-hos-mch@moh.gov.sa,,,,39.17288784,21.53915327,https://eservices.moh.gov.sa/hospitals/assets/Styles/assets/global/img/hospital.png,,
56,مستشفى العيون بجدة,Ophthalmology Hospital,OH,1,,20005,26,85,10,0,5,جدة,1,,4,,1,,80,90,1370,1409,1,1,3,2024-11-03T11:16:44.217,,00966126939998,00966126930307,,JED-HOS-OH@MOH.GOV.SA,,,,39.21518326,21.57865217,https://eservices.moh.gov.sa/hospitals/assets/Styles/assets/global/img/hospital.png,,
57,مستشفى الملك سعود,King Sauod Hospital,KSH,1,,20016,26,0,10,0,5,جدة,1,,4,,1,,80,90,,,1,2,,2017-04-19T09:50:40.173,,00966126225089,00966126226177,,,,,,39.1224521,21.66589411,https://eservices.moh.gov.sa/hospitals/assets/Styles/assets/global/img/hospital.png,,
58,مستشفى العزيزية للأطفال,Azizia Children's Hospital,AMCH,1,,20013,26,100,36,1,5,جدة,1,,3,,1,,100,136,1409,1409,1,1,4,2025-03-18T11:35:34.13,,00966126729092,00966126719527,,Jed-hos-amch@moh.gov.sa,,,,39.20745598,21.55772083,https://eservices.moh.gov.sa/hospitals/assets/Styles/assets/global/img/hospital.png,,
59,مجمع إرادة والصحة النفسية بجدة,Mental Health Hospital,MHH,1,,20007,26,125,6,0,5,جدة,1,,4,,1,,125,131,1409,1409,2,1,3,2023-11-12T16:46:03.693,,00966126361078,00966126361061,,JED-HOS-MHH@moh.gov.sa,,,,39.20437396,21.44253853,https://eservices.moh.gov.sa/hospitals/assets/Styles/assets/global/img/hospital.png,,
60,مستشفى الأمل بجدة,Al Amal Mental Health Complex,AMHC,1,,20901,26,210,10,0,5,جدة,1,,4,,1,,210,,1412,1412,2,1,2,2024-10-22T12:41:05.64,,00966126544293,00966126549882,KALOUFI,aialzahrani@moh.gov.sa,,,,39.1487303,21.62828703,https://eservices.moh.gov.sa/hospitals/assets/Styles/assets/global/img/hospital.png,,
61,مستشفى الثغر العام,Al Thaghr Hospital,ALTH,1,,20006,26,100,30,1,5,جدة,1,,1,,1,,100,130,1404,1404,1,2,2,2023-11-12T16:44:46.847,,00966126202333,00966126205570,,jed-alth-hg@moh.gov.sav,,,,39.30240057,21.44016702,https://eservices.moh.gov.sa/hospitals/assets/Styles/assets/global/img/hospital.png,,
62,مستشفى رابغ العام ,Rabigh General Hospital,RABG,1,,20003,26,120,15,1,169,رابغ,1,,1,,1,,120,135,1405,0,1,2,3,2023-11-12T16:41:32.57,,00966124232644,00966124221620,,jed-hos-rh@moh.gov.sa,,,,39.03383955,22.77389605,https://eservices.moh.gov.sa/hospitals/assets/Styles/assets/global/img/hospital.png,,
63,مستشفى أضم العام ,Adham Hospital,AH,1,,20903,26,100,0,1,89,أضم,1,,1,,1,,100,100,1406,1437,1,2,2,2023-11-12T16:45:17.647,,00966177426089,0096177426088,,jed-hos-adh@moh.gov.sa,,,,40.87935682,20.44840054,https://eservices.moh.gov.sa/hospitals/assets/Styles/assets/global/img/hospital.png,,
64,مستشفى الليث العام ,Allayth Hospital,ALH,1,,20902,26,50,30,1,135,الليث,1,,4,,1,,48,78,1415,1111,3,2,4,2023-11-12T16:45:38.1,,00966177421958,00966177421025,,talayafi@moh.gov.sa,,,,40.27502988,20.14669729,https://eservices.moh.gov.sa/hospitals/assets/Styles/assets/global/img/hospital.png,,
272,المستشفى التخصصي بمدينة الملك عبدالله الطبية,King Fahd Medical City-Specialist Hospital,SKAH,1,,1,1,,,,5,جدة,1,,4,,1,,50,,,,,2,,2017-04-21T01:22:47.433,,,,,,,,,39.8813469,21.38240016,https://eservices.moh.gov.sa/hospitals/assets/Styles/assets/global/img/hospital.png,,
448,مستشفى عبد اللطيف جميل للتأهيل الطبي,Abdul latif Jameel Hospital for Medical Rehabilitation,,1,,10,25,76,,,5,جدة,3,,4,,1,,76,,,,,,,2017-04-25T14:17:08.937,,00966126770001,00966126770009,,,,,,-1.0,-1.0,https://eservices.moh.gov.sa/hospitals/assets/Styles/assets/global/img/PHospital.png,,
449,مستشفى أبو زناده ,Abu Zinadah Hospital,,1,,11,25,30,,,5,جدة,3,,4,,1,,68,,,,,,,2017-04-25T14:18:46.983,,00966126510652,00966126517726,,,,,,-1.0,-1.0,https://eservices.moh.gov.sa/hospitals/assets/Styles/assets/global/img/PHospital.png,,
451,مستشفى الحمراء ,Al Hamra Hospital,,1,,13,25,35,,,5,جدة,3,,4,,1,,35,,,,,,,2017-04-25T14:22:58.47,,00966126612165,00966126644360,,,,,,-1.0,-1.0,https://eservices.moh.gov.sa/hospitals/assets/Styles/assets/global/img/PHospital.png,,
454,مستشفى أندلسية الطبية ,ANDALUSIA HOSPITAL,ANH,1,,16,25,83,,,5,جدة,3,,4,,1,,54,,,,,,,2025-02-02T08:43:47.38,,00966126806666,00966126803380,,mohamedabdelsamie@andalusiagroup.net,,,,39.24362526,21.48132232,https://eservices.moh.gov.sa/hospitals/assets/Styles/assets/global/img/PHospital.png,,
455,مستشفى الجدعاني الصفا,Al Jedaaney Hospital,,1,,17,25,100,,,5,جدة,3,,4,,1,,100,,,,,,,2017-04-25T14:30:21.283,,00966126772221,00966126939500,,,,,,-1.0,-1.0,https://eservices.moh.gov.sa/hospitals/assets/Styles/assets/global/img/PHospital.png,,
456,مستشفى المستقبل الطبي ,Al Mostaqbal Hospital ,,1,,18,25,103,,,5,جدة,3,,4,,1,,103,,,,,,,2017-04-25T14:31:46.033,,00966126875255,00966126807274,,,,,,-1.0,-1.0,https://eservices.moh.gov.sa/hospitals/assets/Styles/assets/global/img/PHospital.png,,
460,مستشفى السلام الدولي ,Al Salam International Hospital,,1,,22,25,50,,,5,جدة,3,,4,,1,,50,,,,,,,2017-04-25T14:44:22.467,,0096626970000,00966122540167,,,,,,-1.0,-1.0,https://eservices.moh.gov.sa/hospitals/assets/Styles/assets/global/img/PHospital.png,,
463,مستشفى الأنصار ,Al-Ansar Hospital,,1,,25,25,,,,5,جدة,3,,4,,1,,,,,,,,,2017-06-01T13:04:05.2,,,,,,,,,-1.0,-1.0,https://eservices.moh.gov.sa/hospitals/assets/Styles/assets/global/img/PHospital.png,,
465,مستشفى الزهراء ,Al-Zahraa Hospital,,1,,27,25,49,,,5,جدة,3,,4,,1,,,,,,,,,2017-04-26T10:00:20.45,,00966126823331,00966126829922,,,,,,-1.0,-1.0,https://eservices.moh.gov.sa/hospitals/assets/Styles/assets/global/img/PHospital.png,,
467,مستشفى بقشان العام,Bugshan General Hospital,,1,,29,25,50,,,5,جدة,3,,4,,1,,120,,,,,,,2017-04-26T10:07:01.247,,00966126691222,00966126656061,,,,,,-1.0,-1.0,https://eservices.moh.gov.sa/hospitals/assets/Styles/assets/global/img/PHospital.png,,
469,مستشفى باقدو والدكتور عرفان ,Dr. Erfan and Bagedo Hospital,BAH,1,,31,25,225,,,5,جدة,3,,4,,1,,225,,,,,,,2017-10-23T11:25:10.237,,00966126820022,00966126917747,,abeyari@ebgh.sa,,,,39.17909935,21.57622518,https://eservices.moh.gov.sa/hospitals/assets/Styles/assets/global/img/PHospital.png,,
471,مستشفى د. سليمان فقيه ,Dr. Suleiman Fakeeh Hospital,test,1,,33,25,354,,,5,جدة,3,,4,,1,,355,,,,,,,2017-10-23T11:23:53.643,,00966126655000,00966126608013,,mabdulrazak@fakeeh.care,,,,39.16780189,21.52514862,https://eservices.moh.gov.sa/hospitals/assets/Styles/assets/global/img/PHospital.png,,
474,مستشفى د.عبدالرحمن بخش(الشرفية) ,Dr.Abdulrahman Bakhsh Hospital,,1,,36,25,131,,,5,جدة,3,,4,,1,,,,,,,,,2017-05-30T13:36:37.63,,00966126510666,00966126518939,,,,,,-1.0,-1.0,https://eservices.moh.gov.sa/hospitals/assets/Styles/assets/global/img/PHospital.png,,
476,الشبكة الشاملة للرعاية الطبية بجدة ,General network of healthcare provider in jeddah,GNF JEDDAH,1,,38,25,150,,,5,جدة,3,,4,,1,,50,,,,,,,2022-01-31T10:44:49.863,,00966126823200,00966126830289,,,,,,39.14376033,21.59461747,https://eservices.moh.gov.sa/hospitals/assets/Styles/assets/global/img/PHospital.png,,
477,مستشفى د/ خالد إدريس وشركاه,Dr.Khalid Idriss Hospital,,1,,39,25,60,,,5,جدة,3,,4,,1,,60,,,,,,,2017-04-26T10:24:10.707,,00966126423555,00966126430478,,,,,,-1.0,-1.0,https://eservices.moh.gov.sa/hospitals/assets/Styles/assets/global/img/PHospital.png,,
478,مستشفى حسان أمين غزاوي ,Hassan Ameen Ghazzawi Hospital,thf,1,,40,25,30,,,5,جدة,3,,4,,1,,30,,,,,,,2024-08-05T10:54:14.123,,00966126636333,00966126650488,,,,,,-1.0,-1.0,https://eservices.moh.gov.sa/hospitals/assets/Styles/assets/global/img/PHospital.png,,
479,المركز الطبي الدولي ,International Medical Center,MHI,1,,41,25,204,,,5,جدة,3,,4,,1,,300,,,,,,,2017-10-23T11:24:38.923,,00966126509000,00966126509001,,kalem@imc.med.sa,,,,39.17416141,21.5134634,https://eservices.moh.gov.sa/hospitals/assets/Styles/assets/global/img/PHospital.png,,
480,مستشفى جدة الوطني,Jeddah Clinic Hospital,,1,,42,25,120,,,5,جدة,3,,4,,1,,,,,,,,,2017-04-26T10:28:46.4,,00966126313131,00966126323142,,,,,,-1.0,-1.0,https://eservices.moh.gov.sa/hospitals/assets/Styles/assets/global/img/PHospital.png,,
481,مستشفى جدة الأهلي,Jeddah National Hospital,JNH,1,,43,25,50,,,5,جدة,3,,4,,1,,50,,,,,,,2022-03-22T11:31:47.263,,00966126712086,00966126727909,,,,,,39.19462761,21.55093347,https://eservices.moh.gov.sa/hospitals/assets/Styles/assets/global/img/PHospital.png,,
482,مستشفى المغربي للعيون والأذن ,Magrabi Eye and Ear Hospital,,1,,44,25,30,,,5,جدة,3,,4,,1,,30,,,,,,,2017-04-26T10:36:16.887,,00966126655200,00966126650200,,,,,,-1.0,-1.0,https://eservices.moh.gov.sa/hospitals/assets/Styles/assets/global/img/PHospital.png,,
483,مستشفى الجدعاني الجديد,New al Jedani Hospital,,1,,45,25,89,,,5,جدة,3,,4,,1,,100,,,,,,,2017-04-26T10:36:54.48,,00966126365729,00966126360352,,,,,,-1.0,-1.0,https://eservices.moh.gov.sa/hospitals/assets/Styles/assets/global/img/PHospital.png,,
484,مستشفى جدة الوطني الجديد,New Jeddah Clinic Hospital,,1,,46,25,97,,,5,جدة,3,,4,,1,,,,,,,,,2017-04-26T10:39:48.577,,00966126675000,,,,,,,-1.0,-1.0,https://eservices.moh.gov.sa/hospitals/assets/Styles/assets/global/img/PHospital.png,,
485,المستشفى السعودي الألماني,Saudi German Hospital,SGH,1,,47,25,184,,,5,جدة,3,,4,,1,,218,,,,,,,2017-04-26T10:41:47.327,,00966126829333,00966126835874,,,,,,-1.0,-1.0,https://eservices.moh.gov.sa/hospitals/assets/Styles/assets/global/img/PHospital.png,,
489,مستشفى الأطباء المتحدون,United Doctors Hospital,,1,,51,25,60,,,5,جدة,3,,4,,1,,60,,,,,,,2017-04-26T12:27:49.207,,00966126533333,00966126533333,,,,,,-1.0,-1.0,https://eservices.moh.gov.sa/hospitals/assets/Styles/assets/global/img/PHospital.png,,
518,المستشفى السعودي الألماني,Saudi German Hospital,SGH,1,,47,25,218,,,5,جدة,3,,4,,1,,,,,,,,,2017-06-01T11:41:32.243,,00966126829000,00966126835874,,,,,,-1.0,-1.0,https://eservices.moh.gov.sa/hospitals/assets/Styles/assets/global/img/PHospital.png,,
519,المستشفى السعودي بجدة,Saudi Hospital-Jeddah,SHJ,1,,-99,-99,30,,,5,جدة,3,,4,,1,,,,,,,,,2017-06-01T11:41:32.243,,00966126711831,00966126726890,,,,,,-1.0,-1.0,https://eservices.moh.gov.sa/hospitals/assets/Styles/assets/global/img/PHospital.png,,
520,مستشفى كلية ابن سيناء الاهلية للعلوم الطبية,Ibn Sina Hospital,ISHMS,1,,-99,-99,100,,,5,جدة,3,,4,,1,,,,,,,,,2017-04-27T08:36:51.543,,00966126355566,00966122682888,,,,,,-1.0,-1.0,https://eservices.moh.gov.sa/hospitals/assets/Styles/assets/global/img/PHospital.png,,
521,مستشفى الظافر,al zafer hospital ,THH,1,,-99,-99,30,,,5,جدة,3,,4,,1,,,,,,,,,2017-05-30T13:36:37.63,,00966126256666,00966126244135,,,,,,-1.0,-1.0,https://eservices.moh.gov.sa/hospitals/assets/Styles/assets/global/img/PHospital.png,,
522,مستشفى غسان نجيب فرعون العام,Ghassan Najib Pharaoh Hospital ,GNF,1,,-99,-99,,,,3,مكة المكرمة,3,,4,,1,,,,,,,,,2017-06-01T13:04:05.2,,00966122751016,00966126830289,,,,,,-1.0,-1.0,https://eservices.moh.gov.sa/hospitals/assets/Styles/assets/global/img/PHospital.png,,
523,مستشفى الحياة,Al-Hayat hospital,HH,1,,15,-99,120,,,5,جدة,3,,4,,1,,120,,,,,,,2017-04-27T08:42:52.683,,,,,,,,,-1.0,-1.0,https://eservices.moh.gov.sa/hospitals/assets/Styles/assets/global/img/PHospital.png,,
524,مستشفى الجزيرة بجدة,Al-Jazirah Hospital Jeddah,JH,1,,-99,-99,,,,5,جدة,3,,4,,1,,,,,,,,,2017-04-27T08:43:53.483,,00966126402773,00966126405991,,,,,,-1.0,-1.0,https://eservices.moh.gov.sa/hospitals/assets/Styles/assets/global/img/PHospital.png,,
526,مستشفى هاله عيسى بن لادن,Hala bin Laden Hospital,HEL,1,,-99,-99,34,,,5,جدة,3,,4,,1,,,,,,,,,2017-04-27T11:50:59.2,,00966126603332,00966126635545,,,,,,-1.0,-1.0,https://eservices.moh.gov.sa/hospitals/assets/Styles/assets/global/img/PHospital.png,,
548,مستشفى الملك فيصل التخصصي بجدة,King Faisal Specialized Hospital and Research Center-Jeddah,KFSHRC,1,,99,99,,,,5,جدة,4,,,,,,,,,,,,,2020-07-25T01:31:12.367,,,,,,,,,39.148155,21.55911,https://eservices.moh.gov.sa/hospitals/assets/Styles/assets/global/img/SPHospital.png,,
552,مستشفى الملك عبدالعزيز الجامعي ,King AbdulAziz University Hospital-Jeddah,KAUH,1,,99,99,,,,5,جدة,5,,,,,,,,,,,,,2020-10-06T14:12:01.17,,00966126401000,,,,,,,39.234683,21.496952,https://eservices.moh.gov.sa/hospitals/assets/Styles/assets/global/img/UHospital.png,,
563,مستشفى الملك فهد للقوات المسلحة بجدة,King Fahed Armed Force Hospital-Jeddah,KFHAF,1,,-99,-99,484,,,5,جدة,6,,,,,,,,,,,,,2017-04-28T13:02:55.783,,00966126653000,,,,,,,-1.0,-1.0,https://eservices.moh.gov.sa/hospitals/assets/Styles/assets/global/img/MHospital.png,,
651,الحمراء,Al Hamraa,,1,,-99,-99,,,,5,جدة,8,,,,,,,,,,,,,2019-06-30T07:24:41.66,,0096616670144,,,,,,,39.157339,21.516363,https://eservices.moh.gov.sa/hospitals/assets/Styles/assets/global/img/Mcenter.png,,
652,بريمان,Bariman,,1,,-99,-99,,,,5,جدة,8,,,,,,,,,,,,,2019-06-30T07:32:35.23,,NULL,,,,,,,39.232162,21.641744,https://eservices.moh.gov.sa/hospitals/assets/Styles/assets/global/img/Mcenter.png,,
653,البلد,Al-Balad,,1,,-99,-99,,,,5,جدة,8,,,,,,,,,,,,,2019-06-30T07:53:02.833,,NULL,,,,,,,39.1898,21.48307,https://eservices.moh.gov.sa/hospitals/assets/Styles/assets/global/img/Mcenter.png,,
654,المحجر,Al Mahgar,,1,,-99,-99,,,,5,جدة,8,,,,,,,,,,,,,2019-06-30T07:51:01.443,,0126360478NULL,0126366902,,ALMAHJAR-HC@HOTMAIL.COM,,,,39.20618537,21.44021643,https://eservices.moh.gov.sa/hospitals/assets/Styles/assets/global/img/Mcenter.png,,
655,السليمانية,Al Solimania,,1,,-99,-99,,,,5,جدة,8,,,,,,,,,,,,,2019-06-30T07:32:14.633,,009666400468,,,,,,,39.23983,21.507508,https://eservices.moh.gov.sa/hospitals/assets/Styles/assets/global/img/Mcenter.png,,
666,إدارة خدمات السموم الشرعية بجدة,Jeddah Forensic Toxicology Services Administration,PCCJED,1,,99,99,,,,5,جدة,7,,,,,,,,,,,,,2019-08-01T10:59:07.06,,0126379400,,,,,,,39.207352,21.440358,https://eservices.moh.gov.sa/hospitals/assets/Styles/assets/global/img/PCCenters.png,,
2138,ال السني,Al al-Sunni,,1,,-99,-99,,,,89,أضم,8,,,,,,,,,,,,,2019-06-30T08:11:14.75,,00966509265435,,,,,,,40.89538336,20.27089296,https://eservices.moh.gov.sa/hospitals/assets/Styles/assets/global/img/Mcenter.png,,
2140,الابواء,Al-Abwaa,,1,,-99,-99,,,,5,جدة,8,,,,,,,,,,,,,2019-07-09T09:00:35.733,,NULL,,,,,,,39.07247,23.10914,https://eservices.moh.gov.sa/hospitals/assets/Styles/assets/global/img/Mcenter.png,,
2141,الامير عبدالمجيد,Alamir eabdalmjyd,PHC,1,,99,99,,,,5,جدة,8,,,,,,,,,,,,,2021-03-10T09:43:34.56,,00966126208207,,,,,,,39.2844743,21.4258029,https://eservices.moh.gov.sa/hospitals/assets/Styles/assets/global/img/Mcenter.png,,
2143,البوادي2,Al-Bawadi2,PHC,1,,99,99,,,,5,جدة,8,,,,,,,,,,,,,2021-02-16T10:57:57.407,,00966126829430,,,,,,,39.1666638,21.6035373,https://eservices.moh.gov.sa/hospitals/assets/Styles/assets/global/img/Mcenter.png,,
2144,الثعالبة,Al-Tha'albah,,1,,-99,-99,,,,5,جدة,8,,,,,,,,,,,,,2019-07-09T08:58:12.94,,00966126376349,,,,,,,39.19639,21.458,https://eservices.moh.gov.sa/hospitals/assets/Styles/assets/global/img/Mcenter.png,,
2145,الثغر,الثغر,,1,,-99,-99,,,,5,جدة,8,,,,,,,,,,,,,2017-04-19T15:38:04.727,,00966126870841,,,,,,,39.22711,21.48245,https://eservices.moh.gov.sa/hospitals/assets/Styles/assets/global/img/Mcenter.png,,
2146,الجامعة,Al-Jameaa,phc,1,,99,99,,,,5,جدة,8,,,,,,,,,,,,,2020-02-20T14:29:27.96,,00966126896580,,,,,,,39.2380246,21.474944,https://eservices.moh.gov.sa/hospitals/assets/Styles/assets/global/img/Mcenter.png,,
2147,الجائزة,Al-Jaezah,,1,,-99,-99,,,,89,أضم,8,,,,,,,,,,,,,2019-06-30T08:14:29.89,,00966127462884,,,,,,,40.97393,20.37472,https://eservices.moh.gov.sa/hospitals/assets/Styles/assets/global/img/Mcenter.png,,
2148,الحرازات,Al-Harazat,PHC,1,,99,99,,,,5,جدة,8,,,,,,,,,,,,,2019-07-21T15:24:50.34,,,,,,,,,39.379734,21.470459,https://eservices.moh.gov.sa/hospitals/assets/Styles/assets/global/img/Mcenter.png,,
2150,الربوة,Al-Rabwah,,1,,-99,-99,,,,5,جدة,8,,,,,,,,,,,,,2019-07-09T08:48:15.187,,00966126625686,,,,,,,39.182484,21.612885,https://eservices.moh.gov.sa/hospitals/assets/Styles/assets/global/img/Mcenter.png,,
2151,الروابي,Al-Rawabi,PHC,1,,99,99,,,,5,جدة,8,,,,,,,,,,,,,2019-07-21T12:25:36.943,,00966126208212,,,,,,,39.266712,21.477093,https://eservices.moh.gov.sa/hospitals/assets/Styles/assets/global/img/Mcenter.png,,
2152,الرويس,Alruways,Phc,1,,99,99,,,,5,جدة,8,,,,,,,,,,,,,2020-05-08T17:55:41.65,,00966126518040,,,,,,,39.1788115,21.4970819,https://eservices.moh.gov.sa/hospitals/assets/Styles/assets/global/img/Mcenter.png,,
2153,الزهراء,Al-Zahraa,,1,,-99,-99,,,,5,جدة,8,,,,,,,,,,,,,2018-10-18T16:11:22.08,,00966126821884,,,,,,,39.13259,21.60801,https://eservices.moh.gov.sa/hospitals/assets/Styles/assets/global/img/Mcenter.png,,
2155,السلامة,Al-Salamah,PHC,1,,99,99,,,,5,جدة,8,,,,,,,,,,,,,2019-06-30T07:30:16.497,,00966126822393,,,,,,,39.153865,21.591532,https://eservices.moh.gov.sa/hospitals/assets/Styles/assets/global/img/Mcenter.png,,
2157,الشاطئ,Al-shatya'a,,1,,-99,-99,,,,5,جدة,8,,,,,,,,,,,,,2019-06-30T08:02:07.927,,00966126543909,,,,,,,39.10681,21.68659,https://eservices.moh.gov.sa/hospitals/assets/Styles/assets/global/img/Mcenter.png,,
2158,الشرفية,Al-Sharfiayh,,1,,-99,-99,,,,5,جدة,8,,,,,,,,,,,,,2019-06-06T07:05:17.553,,00966126510557,,,,,,,39.19045312,21.51800036,https://eservices.moh.gov.sa/hospitals/assets/Styles/assets/global/img/Mcenter.png,,
2159,الشواق,Al-Showaq,,1,,-99,-99,,,,7,الطائف,8,,,,,,,,,,,,,2019-07-09T08:55:21.9,,00966177427677,,,,,,,40.73195,19.91806,https://eservices.moh.gov.sa/hospitals/assets/Styles/assets/global/img/Mcenter.png,,
2160,الصحيفة,Al-Sahifa,,1,,-99,-99,,,,5,جدة,8,,,,,,,,,,,,,2018-10-18T16:11:22.08,,00966126422565,,,,,,,39.19432,21.48737,https://eservices.moh.gov.sa/hospitals/assets/Styles/assets/global/img/Mcenter.png,,
2161,الصفا 2,Al-Safa,PHC,1,,99,99,,,,5,جدة,8,,,,,,,,,,,,,2019-07-09T08:50:24.107,,00966126718076,,,,,,,39.204517,21.577662,https://eservices.moh.gov.sa/hospitals/assets/Styles/assets/global/img/Mcenter.png,,
2162,الصفا 1,Al-Safaa North New,PHC,1,,99,99,,,,5,جدة,8,,,,,,,,,,,,,2019-07-09T08:49:59.607,,00966126718076,,,,,,,39.218348,21.60214,https://eservices.moh.gov.sa/hospitals/assets/Styles/assets/global/img/Mcenter.png,,
2163,الصليب الشرقي,Eastern al-Saleeb,,1,,-99,-99,,,,,,8,,,,,,,,,,,,,2020-03-07T07:39:14.143,,00966124221877,,,,,,,39.04367,22.82532,https://eservices.moh.gov.sa/hospitals/assets/Styles/assets/global/img/Mcenter.png,,
2164,العرج,Al-Arj,,1,,-99,-99,,,,89,أضم,8,,,,,,,,,,,,,2019-06-30T08:12:50.847,,00966127462996,,,,,,,40.78283,20.53137,https://eservices.moh.gov.sa/hospitals/assets/Styles/assets/global/img/Mcenter.png,,
2165,العزيزية,Al-Aziziah,aaz,1,,99,99,,,,5,جدة,8,,,,,,,,,,,,,2020-02-18T08:58:05.113,,00966126762561,,,,,,,39.19497,21.55441,https://eservices.moh.gov.sa/hospitals/assets/Styles/assets/global/img/Mcenter.png,,
2166,الأميرة فھدة بنت العاصي الشريم (الغالة),Princess Fahda Bint Ala'assi,,1,,-99,-99,,,,135,الليث,8,,,,,,,,,,,,,2019-06-11T08:36:47.107,,00966127462993,,,,,,,40.15011,20.24715,https://eservices.moh.gov.sa/hospitals/assets/Styles/assets/global/img/Mcenter.png,,
2167,الفحو,Al-Fahw,,1,,-99,-99,,,,89,أضم,8,,,,,,,,,,,,,2019-06-30T08:07:51.757,,00966127463944,,,,,,,40.66377872,20.53427565,https://eservices.moh.gov.sa/hospitals/assets/Styles/assets/global/img/Mcenter.png,,
2168,الفيصلية,Al-Faisaliya,,1,,-99,-99,,,,5,جدة,8,,,,,,,,,,,,,2019-07-09T08:47:45.23,,00966126672848,,,,,,,39.17942,21.55969,https://eservices.moh.gov.sa/hospitals/assets/Styles/assets/global/img/Mcenter.png,,
2169,القريات,Al-Qurayat,,1,,-99,-99,,,,5,جدة,8,,,,,,,,,,,,,2019-07-09T08:57:22.977,,00966126379338,,,,,,,39.18893,21.46276,https://eservices.moh.gov.sa/hospitals/assets/Styles/assets/global/img/Mcenter.png,,
2170,القوزين,Al-Qouzain,,1,,-99,-99,,,,5,جدة,8,,,,,,,,,,,,,2019-07-09T08:56:54.067,,00966122361596,,,,,,,39.17503,21.26435,https://eservices.moh.gov.sa/hospitals/assets/Styles/assets/global/img/Mcenter.png,,
2171,الليث,Al-Laith,,1,,-99,-99,,,,135,الليث,8,,,,,,,,,,,,,2019-06-30T08:06:54.197,,00966127421593,,,,,,,40.26105,20.1444,https://eservices.moh.gov.sa/hospitals/assets/Styles/assets/global/img/Mcenter.png,,
2173,المرقبان,Al-Merqeban,,1,,-99,-99,,,,89,أضم,8,,,,,,,,,,,,,2019-06-30T08:13:16.913,,NULL,,,nalzblanl@moh.gov.sa,,,,40.86787,20.55645,https://eservices.moh.gov.sa/hospitals/assets/Styles/assets/global/img/Mcenter.png,,
2174,المروة,Al-Marwa,,1,,-99,-99,,,,5,جدة,8,,,,,,,,,,,,,2019-06-30T07:28:13.293,,00966126771087,,,,,,,39.207291,21.632303,https://eservices.moh.gov.sa/hospitals/assets/Styles/assets/global/img/Mcenter.png,,
2175,المستنقع,Al-Mustanqa,,1,,-99,-99,,,,,,8,,,,,,,,2014,,,,,2020-09-08T14:31:06.037,,00966127423051,,,,,,,40.54581,20.54118,https://eservices.moh.gov.sa/hospitals/assets/Styles/assets/global/img/Mcenter.png,,
2176,المطار القديم,Al-Matar Al-Qadeem,,1,,-99,-99,,,,5,جدة,8,,,,,,,,,,,,,2019-06-30T07:46:50.06,,00966126402887,,,,,,,39.23362,21.51807,https://eservices.moh.gov.sa/hospitals/assets/Styles/assets/global/img/Mcenter.png,,
2177,المنتزهات,Al-Muntazahat,,1,,-99,-99,,,,5,جدة,8,,,,,,,,,,,,,2019-07-09T08:53:58.783,,00966126209731,,,,,,,39.28129,21.46018,https://eservices.moh.gov.sa/hospitals/assets/Styles/assets/global/img/Mcenter.png,,
2178,النزلة اليمانية,النزلة اليمانية,,1,,-99,-99,,,,5,جدة,8,,,,,,,,,,,,,2017-04-19T15:38:04.727,,00966126366902,,,,,,,39.20418696,21.46786829,https://eservices.moh.gov.sa/hospitals/assets/Styles/assets/global/img/Mcenter.png,,
2179,النعيم,النعيم,,1,,-99,-99,,,,5,جدة,8,,,,,,,,,,,,,2019-07-09T08:49:10.74,,0126111525,,,,,,,39.14457142,21.61705695,https://eservices.moh.gov.sa/hospitals/assets/Styles/assets/global/img/Mcenter.png,,
2180,النعيمات,Al-Nuaimat,,1,,-99,-99,,,,89,أضم,8,,,,,,,,,,,,,2019-06-30T08:09:20.947,,00966555789420,,,,,,,40.88296,20.3481,https://eservices.moh.gov.sa/hospitals/assets/Styles/assets/global/img/Mcenter.png,,
2181,النويبع,alnoeba,,1,,-99,-99,,,,169,رابغ,8,,,,,,,,,,,,,2018-10-18T16:24:55.713,,00966557862321,,,,,,,39.23915,22.8826,https://eservices.moh.gov.sa/hospitals/assets/Styles/assets/global/img/Mcenter.png,,
2182,الهنداوية,الهنداوية,,1,,-99,-99,,,,5,جدة,8,,,,,,,,,,,,,2017-04-19T15:38:04.727,,00966126470770,,,,,,,39.18776,21.47541,https://eservices.moh.gov.sa/hospitals/assets/Styles/assets/global/img/Mcenter.png,,
2183,الوسقة,الوسقة,,1,,-99,-99,,,,135,الليث,8,,,,,,,,,,,,,2019-06-30T08:15:14.383,,00966127426559,,,,,,,40.57787,19.97791,https://eservices.moh.gov.sa/hospitals/assets/Styles/assets/global/img/Mcenter.png,,
2184,أبحر الشمالية,أبحر الشمالية,,1,,-99,-99,,,,5,جدة,8,,,,,,,,,,,,,2019-07-09T08:58:59.113,,00966126562619,,,,,,,39.12809,21.76192,https://eservices.moh.gov.sa/hospitals/assets/Styles/assets/global/img/Mcenter.png,,
2185,أضم,Adom,,1,,-99,-99,,,,89,أضم,8,,,,,,,,,,,,,2019-06-30T08:07:26.767,,00966555666749,,,,,,,40.875036,20.449956,https://eservices.moh.gov.sa/hospitals/assets/Styles/assets/global/img/Mcenter.png,,
2186,أم السلم,أم السلم,,1,,-99,-99,,,,5,جدة,8,,,,,,,,,,,,,2019-06-30T07:54:09.423,,00966551710793,,,,,,,39.38777,21.42497,https://eservices.moh.gov.sa/hospitals/assets/Styles/assets/global/img/Mcenter.png,,
2188,بني عفيف,Bani Afif,,1,,-99,-99,,,,89,أضم,8,,,,,,,,,,,,,2019-06-30T08:13:40.557,,00966127462329,,,,,,,40.92539,20.49433,https://eservices.moh.gov.sa/hospitals/assets/Styles/assets/global/img/Mcenter.png,,
2189,بني مالك,Bani Malik,,1,,-99,-99,,,,5,جدة,8,,,,,,,,,,,,,2018-10-18T16:11:22.08,,00966126725184,,,,,,,39.19476661,21.52753327,https://eservices.moh.gov.sa/hospitals/assets/Styles/assets/global/img/Mcenter.png,,
2190,بني يزيد,Bani Yezeed,biy,1,,99,99,,,,5,جدة,8,,,,,,,,,,,,,2020-02-18T08:51:02.293,,00966127424970,,,,,,,40.56677,20.72468,https://eservices.moh.gov.sa/hospitals/assets/Styles/assets/global/img/Mcenter.png,,
2191,ثول,Thoul,,1,,-99,-99,,,,411,ثول,8,,,,,,,,,,,,,2019-06-30T08:05:01.84,,00966122390254,,,,,,,39.11845207,22.28838166,https://eservices.moh.gov.sa/hospitals/assets/Styles/assets/global/img/Mcenter.png,,
2192,جدم,جدم,,1,,-99,-99,,,,135,الليث,8,,,,,,,,,,,,,2019-06-30T08:21:17.747,,00966127425308,,,,,,,40.4074,20.62111,https://eservices.moh.gov.sa/hospitals/assets/Styles/assets/global/img/Mcenter.png,,
2193,حجر,Hajar,,1,,-99,-99,,,,169,رابغ,8,,,,,,,,,,,,,2019-06-14T12:20:41.477,,NULL,,,,,,,39.73144,23.0144,https://eservices.moh.gov.sa/hospitals/assets/Styles/assets/global/img/Mcenter.png,,
2194,حقال,Heqal,,1,,-99,-99,,,,89,أضم,8,,,,,,,,,,,,,2019-07-09T08:55:42.62,,00966127463950,,,,,,,40.72601,20.48386,https://eservices.moh.gov.sa/hospitals/assets/Styles/assets/global/img/Mcenter.png,,
2195,دثن بني جابر,dasen bni jaber,,1,,-99,-99,,,,89,أضم,8,,,,,,,,,,,,,2019-06-30T08:08:16.45,,NULL,,,,,,,40.67839323,20.60884056,https://eservices.moh.gov.sa/hospitals/assets/Styles/assets/global/img/Mcenter.png,,
2196,ذهبان,Zahban,,1,,-99,-99,,,,5,جدة,8,,,,,,,,,,,,,2019-06-30T08:04:32.75,,00966122381130,,,,,,,39.12019,21.92786,https://eservices.moh.gov.sa/hospitals/assets/Styles/assets/global/img/Mcenter.png,,
2197,رابغ,Rabegh,PHC,1,,99,99,,,,169,رابغ,8,,,,,,,,,,,,,2019-06-30T08:06:03.2,,009661242201800,,,,,,,39.030544,22.795425,https://eservices.moh.gov.sa/hospitals/assets/Styles/assets/global/img/Mcenter.png,,
2198,ربوع العين,Robua Alain,PHC,1,,99,99,,,,89,أضم,8,,,,,,,,,,,,,2021-09-09T09:46:22.943,,00966127463949,,,,,,,40.74659,20.60804,https://eservices.moh.gov.sa/hospitals/assets/Styles/assets/global/img/Mcenter.png,,
2199,شرق الخط السريع,East of The Highway,PHC,1,,99,99,,,,5,جدة,8,,,,,,,,,,,,,2021-09-09T09:47:46.393,,00966126796983,,,,,,,39.2513,21.59324,https://eservices.moh.gov.sa/hospitals/assets/Styles/assets/global/img/Mcenter.png,,
2201,صعبر,Saabar,PHC,1,,99,99,,,,169,رابغ,8,,,,,,,,,,,,,2019-06-14T12:17:33.727,,00966126564063,,,,,,,39.190075,22.450956,https://eservices.moh.gov.sa/hospitals/assets/Styles/assets/global/img/Mcenter.png,,
2202,طفيل,Tufail,,1,,-99,-99,,,,135,الليث,8,,,,,,,,,,,,,2019-06-14T12:54:14.363,,00966127422881,,,,,,,39.74132,20.71076,https://eservices.moh.gov.sa/hospitals/assets/Styles/assets/global/img/Mcenter.png,,
2203,غليل,غليل,,1,,-99,-99,,,,5,جدة,8,,,,,,,,,,,,,2019-07-09T08:57:44.51,,00966126363620,,,,,,,39.20793,21.44931,https://eservices.moh.gov.sa/hospitals/assets/Styles/assets/global/img/Mcenter.png,,
2204,غميقة,Ghmeeqah,,1,,-99,-99,,,,135,الليث,8,,,,,,,,,,,,,2019-07-09T08:56:04.67,,00966127423558,,,,,,,40.45564,20.30053,https://eservices.moh.gov.sa/hospitals/assets/Styles/assets/global/img/Mcenter.png,,
2205,قويزه,QUWAYZAH,phc,1,,99,99,,,,5,جدة,8,,,,,,,,,,,,,2020-02-20T14:24:29.847,,00966126401938,,,,,,,39.2730989,21.5081957,https://eservices.moh.gov.sa/hospitals/assets/Styles/assets/global/img/Mcenter.png,,
2206,كساب,Kassab,,1,,-99,-99,,,,89,أضم,8,,,,,,,,,,,,,2019-06-30T08:11:36.007,,00966127463947,,,mrahel@moh.gov.sa,,,,40.78548,20.3441,https://eservices.moh.gov.sa/hospitals/assets/Styles/assets/global/img/Mcenter.png,,
2207,كلية,Kelyah,,1,,-99,-99,,,,169,رابغ,8,,,,,,,,,,,,,2019-06-14T12:07:41.273,,NULL,,,,,,,39.29627,22.52774,https://eservices.moh.gov.sa/hospitals/assets/Styles/assets/global/img/Mcenter.png,,
2208,كيلو 14,kilo 14,,1,,-99,-99,,,,5,جدة,8,,,,,,,,,,,,,2019-07-09T08:53:35.687,,00966126252517,,,Salzahrani63@moh.gov.sa,,,,39.327247,21.457801,https://eservices.moh.gov.sa/hospitals/assets/Styles/assets/global/img/Mcenter.png,,
2209,مدائن الفهد,مدائن الفهد,,1,,-99,-99,,,,5,جدة,8,,,,,,,,,,,,,2019-06-30T07:50:35.21,,00966126809624,,,,,,,39.23361,21.46631,https://eservices.moh.gov.sa/hospitals/assets/Styles/assets/global/img/Mcenter.png,,
2210,مرعه,مرعه,,1,,-99,-99,,,,89,أضم,8,,,,,,,,,,,,,2019-06-30T08:08:52.953,,00966546997552,,,,,,,40.91305476,20.37563765,https://eservices.moh.gov.sa/hospitals/assets/Styles/assets/global/img/Mcenter.png,,
2211,مستورة,Mastourah,,1,,-99,-99,,,,169,رابغ,8,,,,,,,,,,,,,2019-06-14T12:18:58.113,,00966124220360,,,,,,,38.832829,23.10815465,https://eservices.moh.gov.sa/hospitals/assets/Styles/assets/global/img/Mcenter.png,,
2212,مشرفة,Mushrifah,,1,,-99,-99,,,,5,جدة,8,,,,,,,,,,,,,2019-07-08T12:13:33.373,,00966126654366,,,,,,,39.18732,21.53326,https://eservices.moh.gov.sa/hospitals/assets/Styles/assets/global/img/Mcenter.png,,
2213,مغينية,Meghiniah,,1,,-99,-99,,,,169,رابغ,8,,,,,,,,,,,,,2019-06-14T12:06:51.51,,00966555580135,,,,,,,39.47037,22.83197,https://eservices.moh.gov.sa/hospitals/assets/Styles/assets/global/img/Mcenter.png,,
2214,يلملم,Yelamlam,,1,,-99,-99,,,,135,الليث,8,,,,,,,,,,,,,2019-06-14T12:43:25.563,,00966127463938,,,,,,,40.13893,20.83845,https://eservices.moh.gov.sa/hospitals/assets/Styles/assets/global/img/Mcenter.png,,
2595,مجمع الملك عبد الله الطبي,King Abdullah medical center,KAMC,1,,,99,500,182,,5,جدة,1,,,,,,500,860,1434,1434,3,2,1,2024-11-03T11:15:40.803,,00966122285000,00966122285888,,JED-HOS-KAMCJ@MOH.GOV.SA,,,,39.09864793,21.76792071,https://eservices.moh.gov.sa/hospitals/assets/Styles/assets/global/img/hospital.png,,
2616,مستشفى شرق جدة,East Jeddah Hospital,EJH,1,,99040,26,300,0,,5,جدة,1,,4,,1,,300,,1437,1437,3,2,1,2023-11-12T16:43:11.62,,00966122327555,00966123237556,,JED-HOS-EJH@moh.gov.sa,,,,39.24224564,21.50876223,https://eservices.moh.gov.sa/hospitals/assets/Styles/assets/global/img/hospital.png,,
2650,مدينة الملك عبدالعزيز الطبية للحرس الوطني بجدة,King Abdulaziz Medical City of the National Guard in Jeddah,KAMCJ,1,,99,99,500,,,5,جدة,6,,,,,,,,,,,,,2018-11-27T07:25:33.447,,00966126240000,,,,,,,-1.0,-1.0,https://eservices.moh.gov.sa/hospitals/assets/Styles/assets/global/img/MHospital.png,,
2651,مركز الأميرة نورة للأورام (تابع لمدينة الملك عبدالعزيز الطبية للحرس الوطني بالشئون الصحية),Princess Noura Center,,1,,-99,-99,88,,,5,جدة,6,,,,,,,,,,,,,2014-06-08T15:58:03,,00966126240000,,,,,,,-1.0,-1.0,https://eservices.moh.gov.sa/hospitals/assets/Styles/assets/global/img/MHospital.png,,
2653,المركز الدولي للرعاية الممتدة,International Extended Care Center,IECC,1,,99,99,100,,,5,جدة,3,,4,,1,,,,,,,,,2020-02-27T10:21:46.56,,00966126508080,00966122682888,,alasaada2@gmail.com,,,,39.18021247,21.51578904,https://eservices.moh.gov.sa/hospitals/assets/Styles/assets/global/img/PHospital.png,,
2654,مستشفى المشفى,Hala bin Laden Hospital,HEL,1,,-99,-99,74,,,5,جدة,3,,4,,1,,,,,,,,,2014-06-08T15:58:03,,00966126822466,00966126900256,,,,,,-1.0,-1.0,https://eservices.moh.gov.sa/hospitals/assets/Styles/assets/global/img/PHospital.png,,
2655,مستشفى نسيم جدة (مستشفى علي فلاح الرويلي سابقا),Hala bin Laden Hospital,HEL,1,,-99,-99,30,,,5,جدة,3,,4,,1,,,,,,,,,2014-06-08T15:58:03,,00966126742111,00966122875111,,,,,,-1.0,-1.0,https://eservices.moh.gov.sa/hospitals/assets/Styles/assets/global/img/PHospital.png,,
2666,مركز طب الأسنان التخصصي جدة,Specialized Dental Center - Jeddah,SDCJ,1,,99,99,,,,5,جدة,14,,,,,,,,,,,,,2018-10-18T16:24:55.713,,126074181,,,,,,,39.160909,21.63039,https://eservices.moh.gov.sa/hospitals/assets/Styles/assets/global/img/SPCenter.png,,
2772,مركز جدة الطبي,Jeddah Medical Center,,1,,-99,-99,,,,5,جدة,3,,,,,,,,,,,,,2017-06-08T10:56:58.42,,,,,,,,,-1.0,-1.0,https://eservices.moh.gov.sa/hospitals/assets/Styles/assets/global/img/PHospital.png,,
2790,المجمع الطبي العام,المجمع الطبي العام,,1,,-99,-99,,,,5,جدة,15,,,,,,,,,,,,,2017-06-08T10:56:58.42,,,,,,,,,-1.0,-1.0,https://eservices.moh.gov.sa/hospitals/assets/Styles/assets/global/img/GMCenter.png,,
2794,المستشار التنفيذي للخدمات الصحية,المستشار التنفيذي للخدمات الصحية,,1,,-99,-99,,,,5,جدة,15,,,,,,,,,,,,,2017-06-08T10:56:58.42,,,,,,,,,-1.0,-1.0,https://eservices.moh.gov.sa/hospitals/assets/Styles/assets/global/img/GMCenter.png,,
2798,المستوصف الراقي ,المستوصف الراقي ,,1,,-99,-99,,,,5,جدة,11,,,,,,,,,,,,,2017-06-08T10:56:58.42,,,,,,,,,-1.0,-1.0,https://eservices.moh.gov.sa/hospitals/assets/Styles/assets/global/img/PClinic.png,,
2802,شركة المشفى العالمي,Forensic Riyadh Management,,1,,-99,-99,,,,5,جدة,15,,,,,,,,,,,,,2017-06-08T10:56:58.42,,,,,,,,,-1.0,-1.0,https://eservices.moh.gov.sa/hospitals/assets/Styles/assets/global/img/GMCenter.png,,
2803,شركة عبدالجواد رفيق أبو الخير الطبية المتحدة ,شركة عبدالجواد رفيق أبو الخير الطبية المتحدة ,,1,,-99,-99,,,,5,جدة,15,,,,,,,,,,,,,2017-06-08T10:56:58.42,,,,,,,,,-1.0,-1.0,https://eservices.moh.gov.sa/hospitals/assets/Styles/assets/global/img/GMCenter.png,,
2804,شركة مجمع دفا المميز الطبي,شركة مجمع دفا المميز الطبي,,1,,-99,-99,,,,5,جدة,15,,,,,,,,,,,,,2017-06-08T10:56:58.42,,,,,,,,,-1.0,-1.0,https://eservices.moh.gov.sa/hospitals/assets/Styles/assets/global/img/GMCenter.png,,
2806,شركة مجمع وجهاء الطبية المحدودة ,شركة مجمع وجهاء الطبية المحدودة ,,1,,-99,-99,,,,5,جدة,15,,,,,,,,,,,,,2017-06-08T10:56:58.42,,,,,,,,,-1.0,-1.0,https://eservices.moh.gov.sa/hospitals/assets/Styles/assets/global/img/GMCenter.png,,
2813,عيادات الرحيلي,عيادات الرحيلي,,1,,-99,-99,,,,5,جدة,15,,,,,,,,,,,,,2017-06-08T10:56:58.42,,,,,,,,,-1.0,-1.0,https://eservices.moh.gov.sa/hospitals/assets/Styles/assets/global/img/GMCenter.png,,
2814,عيادات الريان الدولية,عيادات الريان الدولية,,1,,-99,-99,,,,5,جدة,15,,,,,,,,,,,,,2017-06-08T10:56:58.42,,,,,,,,,-1.0,-1.0,https://eservices.moh.gov.sa/hospitals/assets/Styles/assets/global/img/GMCenter.png,,
2819,عيادات الهبه الطبية المحدودة بجدة,عيادات الهبه الطبية المحدودة بجدة,,1,,-99,-99,,,,5,جدة,15,,,,,,,,,,,,,2017-06-08T10:56:58.42,,,,,,,,,-1.0,-1.0,https://eservices.moh.gov.sa/hospitals/assets/Styles/assets/global/img/GMCenter.png,,
2820,عيادات بدر الدين المجمعه,عيادات بدر الدين المجمعه,,1,,-99,-99,,,,5,جدة,15,,,,,,,,,,,,,2017-06-08T10:56:58.42,,,,,,,,,-1.0,-1.0,https://eservices.moh.gov.sa/hospitals/assets/Styles/assets/global/img/GMCenter.png,,
2821,عيادات بدر الدين جمعة بجدة,عيادات بدر الدين جمعة بجدة,,1,,-99,-99,,,,5,جدة,15,,,,,,,,,,,,,2017-06-08T10:56:58.42,,,,,,,,,-1.0,-1.0,https://eservices.moh.gov.sa/hospitals/assets/Styles/assets/global/img/GMCenter.png,,
2822,عيادات بدر السماء,عيادات بدر السماء,,1,,-99,-99,,,,5,جدة,15,,,,,,,,,,,,,2017-06-08T10:56:58.42,,,,,,,,,-1.0,-1.0,https://eservices.moh.gov.sa/hospitals/assets/Styles/assets/global/img/GMCenter.png,,
2825,عيادات صفاء البوادي,عيادات صفاء البوادي,,1,,-99,-99,,,,5,جدة,15,,,,,,,,,,,,,2017-06-08T10:56:58.42,,,,,,,,,-1.0,-1.0,https://eservices.moh.gov.sa/hospitals/assets/Styles/assets/global/img/GMCenter.png,,
2826,عيادات عناية وعلاج الطبية,عيادات عناية وعلاج الطبية,,1,,-99,-99,,,,5,جدة,15,,,,,,,,,,,,,2017-06-08T10:56:58.42,,,,,,,,,-1.0,-1.0,https://eservices.moh.gov.sa/hospitals/assets/Styles/assets/global/img/GMCenter.png,,
2828,عيادات نسيم جده,عيادات نسيم جده,,1,,-99,-99,,,,5,جدة,15,,,,,,,,,,,,,2017-06-08T10:56:58.42,,,,,,,,,-1.0,-1.0,https://eservices.moh.gov.sa/hospitals/assets/Styles/assets/global/img/GMCenter.png,,
2829,مجمع البشري الطبي رابغ -,مجمع البشري الطبي ـ رابغ -,,1,,-99,-99,,,,5,جدة,15,,,,,,,,,,,,,2017-06-08T10:56:58.42,,,,,,,,,-1.0,-1.0,https://eservices.moh.gov.sa/hospitals/assets/Styles/assets/global/img/GMCenter.png,,
2830,مجمع الثميري الطبي,مجمع الثميري الطبي,,1,,-99,-99,,,,5,جدة,15,,,,,,,,,,,,,2017-06-08T10:56:58.42,,,,,,,,,-1.0,-1.0,https://eservices.moh.gov.sa/hospitals/assets/Styles/assets/global/img/GMCenter.png,,
2835,مجمع السامرية 2 الطبي ,مجمع السامرية 2 الطبي ,,1,,-99,-99,,,,5,جدة,15,,,,,,,,,,,,,2017-06-08T10:56:58.42,,,,,,,,,-1.0,-1.0,https://eservices.moh.gov.sa/hospitals/assets/Styles/assets/global/img/GMCenter.png,,
2838,مجمع العيادات الصحية,مجمع العيادات الصحية,,1,,-99,-99,,,,5,جدة,15,,,,,,,,,,,,,2017-06-08T10:56:58.42,,,,,,,,,-1.0,-1.0,https://eservices.moh.gov.sa/hospitals/assets/Styles/assets/global/img/GMCenter.png,,
2848,مجمع خالد الطبي2,مجمع خالد الطبي2,,1,,-99,-99,,,,5,جدة,15,,,,,,,,,,,,,2017-06-08T10:56:58.42,,,,,,,,,-1.0,-1.0,https://eservices.moh.gov.sa/hospitals/assets/Styles/assets/global/img/GMCenter.png,,
2866,مجمع عيادات المنصور,مجمع عيادات المنصور,,1,,-99,-99,,,,5,جدة,15,,,,,,,,,,,,,2017-06-08T10:56:58.42,,,,,,,,,-1.0,-1.0,https://eservices.moh.gov.sa/hospitals/assets/Styles/assets/global/img/GMCenter.png,,
2867,مجمع عيادات النور الطبي ,مجمع عيادات النور الطبي ,,1,,-99,-99,,,,5,جدة,15,,,,,,,,,,,,,2017-06-08T10:56:58.42,,,,,,,,,-1.0,-1.0,https://eservices.moh.gov.sa/hospitals/assets/Styles/assets/global/img/GMCenter.png,,
2868,مجمع عيادات الوسام,مجمع عيادات الوسام,,1,,-99,-99,,,,5,جدة,15,,,,,,,,,,,,,2017-06-08T10:56:58.42,,,,,,,,,-1.0,-1.0,https://eservices.moh.gov.sa/hospitals/assets/Styles/assets/global/img/GMCenter.png,,
2869,مجمع عيادات الياسمين,مجمع عيادات الياسمين,,1,,-99,-99,,,,5,جدة,15,,,,,,,,,,,,,2017-06-08T10:56:58.42,,,,,,,,,-1.0,-1.0,https://eservices.moh.gov.sa/hospitals/assets/Styles/assets/global/img/GMCenter.png,,
2870,مجمع عيادات إبتسامة العائلة ,مجمع عيادات إبتسامة العائلة ,,1,,-99,-99,,,,5,جدة,15,,,,,,,,,,,,,2017-06-08T10:56:58.42,,,,,,,,,-1.0,-1.0,https://eservices.moh.gov.sa/hospitals/assets/Styles/assets/global/img/GMCenter.png,,
2871,مجمع عيادات بدر التمام,مجمع عيادات بدر التمام,,1,,-99,-99,,,,5,جدة,15,,,,,,,,,,,,,2017-06-08T10:56:58.42,,,,,,,,,-1.0,-1.0,https://eservices.moh.gov.sa/hospitals/assets/Styles/assets/global/img/GMCenter.png,,
2874,مجمع عيادات د . بلغصون ,مجمع عيادات د . بلغصون ,,1,,-99,-99,,,,5,جدة,15,,,,,,,,,,,,,2017-06-08T10:56:58.42,,,,,,,,,-1.0,-1.0,https://eservices.moh.gov.sa/hospitals/assets/Styles/assets/global/img/GMCenter.png,,
2879,مجمع عيادات ريادة المحدودة,مجمع عيادات ريادة المحدودة,,1,,-99,-99,,,,5,جدة,15,,,,,,,,,,,,,2017-06-08T10:56:58.42,,,,,,,,,-1.0,-1.0,https://eservices.moh.gov.sa/hospitals/assets/Styles/assets/global/img/GMCenter.png,,
2880,مجمع عيادات سدرة الطبية الجديد,مجمع عيادات سدرة الطبية الجديد,,1,,-99,-99,,,,5,جدة,15,,,,,,,,,,,,,2017-06-08T10:56:58.42,,,,,,,,,-1.0,-1.0,https://eservices.moh.gov.sa/hospitals/assets/Styles/assets/global/img/GMCenter.png,,
2881,مجمع عيادات سميره,Sameera complex Clinics,,1,,-99,-99,,,,5,جدة,15,,,,,,,,,,,,,2017-06-08T10:56:58.42,,,,,,,,,-1.0,-1.0,https://eservices.moh.gov.sa/hospitals/assets/Styles/assets/global/img/GMCenter.png,,
2882,مجمع عيادات شركة صلاح عثمان,مجمع عيادات شركة صلاح عثمان,,1,,-99,-99,,,,5,جدة,15,,,,,,,,,,,,,2017-06-08T10:56:58.42,,,,,,,,,-1.0,-1.0,https://eservices.moh.gov.sa/hospitals/assets/Styles/assets/global/img/GMCenter.png,,
2885,مجمع عيادات شفاء جده الطبي,مجمع عيادات شفاء جده الطبي,,1,,-99,-99,,,,5,جدة,15,,,,,,,,,,,,,2017-06-08T10:56:58.42,,,,,,,,,-1.0,-1.0,https://eservices.moh.gov.sa/hospitals/assets/Styles/assets/global/img/GMCenter.png,,
2887,مجمع عيادات غليل الجديده,مجمع عيادات غليل الجديده,,1,,-99,-99,,,,5,جدة,15,,,,,,,,,,,,,2017-06-08T10:56:58.42,,,,,,,,,-1.0,-1.0,https://eservices.moh.gov.sa/hospitals/assets/Styles/assets/global/img/GMCenter.png,,
2891,مجمع مركز الهجره الطبي,Alhejra Medical Center complex,,1,,-99,-99,,,,5,جدة,15,,,,,,,,,,,,,2017-06-08T10:56:58.42,,,,,,,,,-1.0,-1.0,https://eservices.moh.gov.sa/hospitals/assets/Styles/assets/global/img/GMCenter.png,,
2895,مجمع هبة آسيا الطبي,مجمع هبة آسيا الطبي,,1,,-99,-99,,,,5,جدة,15,,,,,,,,,,,,,2017-06-08T10:56:58.42,,,,,,,,,-1.0,-1.0,https://eservices.moh.gov.sa/hospitals/assets/Styles/assets/global/img/GMCenter.png,,
2907,مركز بدر الوفاء الحديث,مركز بدر الوفاء الحديث,,1,,-99,-99,,,,5,جدة,15,,,,,,,,,,,,,2017-06-08T10:56:58.42,,,,,,,,,-1.0,-1.0,https://eservices.moh.gov.sa/hospitals/assets/Styles/assets/global/img/GMCenter.png,,
2909,مركز د . طلال قطب الطبي ,مركز د . طلال قطب الطبي ,,1,,-99,-99,,,,5,جدة,15,,,,,,,,,,,,,2017-06-08T10:56:58.42,,,,,,,,,-1.0,-1.0,https://eservices.moh.gov.sa/hospitals/assets/Styles/assets/global/img/GMCenter.png,,
2917,مركز مجمع عيادات إبن النفيس التخصصي الطبي ,Ibn Al-Nafees Polyclinic Medical Specialist Center,,1,,-99,-99,,,,5,جدة,15,,,,,,,,,,,,,2017-06-08T10:56:58.42,,,,,,,,,-1.0,-1.0,https://eservices.moh.gov.sa/hospitals/assets/Styles/assets/global/img/GMCenter.png,,
2918,مركز مستشارك الطبي ,مركز مستشارك الطبي ,,1,,-99,-99,,,,5,جدة,15,,,,,,,,,,,,,2017-06-08T10:56:58.42,,,,,,,,,-1.0,-1.0,https://eservices.moh.gov.sa/hospitals/assets/Styles/assets/global/img/GMCenter.png,,
2919,مركز مشرفه الطبي,مركز مشرفه الطبي,,1,,-99,-99,,,,5,جدة,15,,,,,,,,,,,,,2017-06-08T10:56:58.42,,,,,,,,,-1.0,-1.0,https://eservices.moh.gov.sa/hospitals/assets/Styles/assets/global/img/GMCenter.png,,
2938,مستشفى الرويلي ,Rwaili Hospital,,1,,-99,-99,,,,5,جدة,3,,,,,,,,,,,,,2017-06-08T10:56:58.42,,,,,,,,,-1.0,-1.0,https://eservices.moh.gov.sa/hospitals/assets/Styles/assets/global/img/PHospital.png,,
2939,مستشفى الزهره,AlZahra'a Hospital,,1,,-99,-99,,,,5,جدة,3,,,,,,,,,,,,,2017-06-08T10:56:58.42,,,,,,,,,-1.0,-1.0,https://eservices.moh.gov.sa/hospitals/assets/Styles/assets/global/img/PHospital.png,,
2950,مستشفى جده الوطني - الكندره,National Jeddah Hospital ,,1,,-99,-99,,,,5,جدة,3,,,,,,,,,,,,,2017-06-08T10:56:58.42,,,,,,,,,-1.0,-1.0,https://eservices.moh.gov.sa/hospitals/assets/Styles/assets/global/img/PHospital.png,,
2957,مستوصف 2000 الطبي,مستوصف 2000 الطبي,,1,,-99,-99,,,,5,جدة,11,,,,,,,,,,,,,2017-06-08T10:56:58.42,,,,,,,,,-1.0,-1.0,https://eservices.moh.gov.sa/hospitals/assets/Styles/assets/global/img/PClinic.png,,
2958,مستوصف 2000 الطبي بجدة,مستوصف 2000 الطبي بجدة,,1,,-99,-99,,,,5,جدة,11,,,,,,,,,,,,,2017-06-08T10:56:58.42,,,,,,,,,-1.0,-1.0,https://eservices.moh.gov.sa/hospitals/assets/Styles/assets/global/img/PClinic.png,,
2959,مستوصف ابن سينا,مستوصف ابن سينا,,1,,-99,-99,,,,5,جدة,11,,,,,,,,,,,,,2017-06-08T10:56:58.42,,,,,,,,,-1.0,-1.0,https://eservices.moh.gov.sa/hospitals/assets/Styles/assets/global/img/PClinic.png,,
2961,مستوصف اسلام الطبي,مستوصف اسلام الطبي,,1,,-99,-99,,,,5,جدة,11,,,,,,,,,,,,,2017-06-08T10:56:58.42,,,,,,,,,-1.0,-1.0,https://eservices.moh.gov.sa/hospitals/assets/Styles/assets/global/img/PClinic.png,,
2966,مستوصف الاقصى,مستوصف الاقصى,,1,,-99,-99,,,,5,جدة,11,,,,,,,,,,,,,2017-06-08T10:56:58.42,,,,,,,,,-1.0,-1.0,https://eservices.moh.gov.sa/hospitals/assets/Styles/assets/global/img/PClinic.png,,
2974,مستوصف البحيري,مستوصف البحيري,,1,,-99,-99,,,,5,جدة,11,,,,,,,,,,,,,2017-06-08T10:56:58.42,,,,,,,,,-1.0,-1.0,https://eservices.moh.gov.sa/hospitals/assets/Styles/assets/global/img/PClinic.png,,
2975,مستوصف البركة الطبي,مستوصف البركة الطبي,,1,,-99,-99,,,,5,جدة,11,,,,,,,,,,,,,2017-06-08T10:56:58.42,,,,,,,,,-1.0,-1.0,https://eservices.moh.gov.sa/hospitals/assets/Styles/assets/global/img/PClinic.png,,
2977,مستوصف التاج الطبي,مستوصف التاج الطبي,,1,,-99,-99,,,,5,جدة,11,,,,,,,,,,,,,2017-06-08T10:56:58.42,,,,,,,,,-1.0,-1.0,https://eservices.moh.gov.sa/hospitals/assets/Styles/assets/global/img/PClinic.png,,
2979,مستوصف التسامح الطبي,مستوصف التسامح الطبي,,1,,-99,-99,,,,5,جدة,11,,,,,,,,,,,,,2017-06-08T10:56:58.42,,,,,,,,,-1.0,-1.0,https://eservices.moh.gov.sa/hospitals/assets/Styles/assets/global/img/PClinic.png,,
2980,مستوصف التضامن ,مستوصف التضامن ,,1,,-99,-99,,,,5,جدة,11,,,,,,,,,,,,,2017-06-08T10:56:58.42,,,,,,,,,-1.0,-1.0,https://eservices.moh.gov.sa/hospitals/assets/Styles/assets/global/img/PClinic.png,,
2982,مستوصف التعاون الطبي بجدة,مستوصف التعاون الطبي بجدة,,1,,-99,-99,,,,5,جدة,11,,,,,,,,,,,,,2017-06-08T10:56:58.42,,,,,,,,,-1.0,-1.0,https://eservices.moh.gov.sa/hospitals/assets/Styles/assets/global/img/PClinic.png,,
2984,مستوصف الجوهرة الطبي,مستوصف الجوهرة الطبي,,1,,-99,-99,,,,5,جدة,11,,,,,,,,,,,,,2017-06-08T10:56:58.42,,,,,,,,,-1.0,-1.0,https://eservices.moh.gov.sa/hospitals/assets/Styles/assets/global/img/PClinic.png,,
2985,مستوصف الحجاز الجديد,مستوصف الحجاز الجديد,,1,,-99,-99,,,,5,جدة,11,,,,,,,,,,,,,2017-06-08T10:56:58.42,,,,,,,,,-1.0,-1.0,https://eservices.moh.gov.sa/hospitals/assets/Styles/assets/global/img/PClinic.png,,
2986,مستوصف الحجاز الطبي ,مستوصف الحجاز الطبي ,,1,,-99,-99,,,,5,جدة,11,,,,,,,,,,,,,2017-06-08T10:56:58.42,,,,,,,,,-1.0,-1.0,https://eservices.moh.gov.sa/hospitals/assets/Styles/assets/global/img/PClinic.png,,
2989,مستوصف الحرمين الطبي,مستوصف الحرمين الطبي,,1,,-99,-99,,,,5,جدة,11,,,,,,,,,,,,,2017-06-08T10:56:58.42,,,,,,,,,-1.0,-1.0,https://eservices.moh.gov.sa/hospitals/assets/Styles/assets/global/img/PClinic.png,,
2991,مستوصف الحنان,مستوصف الحنان,,1,,-99,-99,,,,5,جدة,11,,,,,,,,,,,,,2017-06-08T10:56:58.42,,,,,,,,,-1.0,-1.0,https://eservices.moh.gov.sa/hospitals/assets/Styles/assets/global/img/PClinic.png,,
2997,مستوصف الدكتور محمد حسن كافي ,مستوصف الدكتور محمد حسن كافي ,,1,,-99,-99,,,,5,جدة,11,,,,,,,,,,,,,2017-06-08T10:56:58.42,,,,,,,,,-1.0,-1.0,https://eservices.moh.gov.sa/hospitals/assets/Styles/assets/global/img/PClinic.png,,
3001,مستوصف الرشاد,مستوصف الرشاد,,1,,-99,-99,,,,5,جدة,11,,,,,,,,,,,,,2017-06-08T10:56:58.42,,,,,,,,,-1.0,-1.0,https://eservices.moh.gov.sa/hospitals/assets/Styles/assets/global/img/PClinic.png,,
3003,مستوصف الزقزوق الطبي,مستوصف الزقزوق الطبي,,1,,-99,-99,,,,5,جدة,11,,,,,,,,,,,,,2017-06-08T10:56:58.42,,,,,,,,,-1.0,-1.0,https://eservices.moh.gov.sa/hospitals/assets/Styles/assets/global/img/PClinic.png,,
3005,مستوصف السروات,مستوصف السروات,,1,,-99,-99,,,,5,جدة,11,,,,,,,,,,,,,2017-06-08T10:56:58.42,,,,,,,,,-1.0,-1.0,https://eservices.moh.gov.sa/hospitals/assets/Styles/assets/global/img/PClinic.png,,
3006,مستوصف السروات الجديد,مستوصف السروات الجديد,,1,,-99,-99,,,,5,جدة,11,,,,,,,,,,,,,2017-06-08T10:56:58.42,,,,,,,,,-1.0,-1.0,https://eservices.moh.gov.sa/hospitals/assets/Styles/assets/global/img/PClinic.png,,
3007,مستوصف السلام بجدة,مستوصف السلام بجدة,,1,,-99,-99,,,,5,جدة,11,,,,,,,,,,,,,2017-06-08T10:56:58.42,,,,,,,,,-1.0,-1.0,https://eservices.moh.gov.sa/hospitals/assets/Styles/assets/global/img/PClinic.png,,
3011,مستوصف السليماني الجديد,مستوصف السليماني الجديد,,1,,-99,-99,,,,5,جدة,11,,,,,,,,,,,,,2017-06-08T10:56:58.42,,,,,,,,,-1.0,-1.0,https://eservices.moh.gov.sa/hospitals/assets/Styles/assets/global/img/PClinic.png,,
3012,مستوصف السليماني الطبي,مستوصف السليماني الطبي,,1,,-99,-99,,,,5,جدة,11,,,,,,,,,,,,,2017-06-08T10:56:58.42,,,,,,,,,-1.0,-1.0,https://eservices.moh.gov.sa/hospitals/assets/Styles/assets/global/img/PClinic.png,,
3013,مستوصف السهلي,مستوصف السهلي,,1,,-99,-99,,,,5,جدة,11,,,,,,,,,,,,,2017-06-08T10:56:58.42,,,,,,,,,-1.0,-1.0,https://eservices.moh.gov.sa/hospitals/assets/Styles/assets/global/img/PClinic.png,,
3014,مستوصف السهلي للخدمات الطبية بجدة,مستوصف السهلي للخدمات الطبية بجدة,,1,,-99,-99,,,,5,جدة,11,,,,,,,,,,,,,2017-06-08T10:56:58.42,,,,,,,,,-1.0,-1.0,https://eservices.moh.gov.sa/hospitals/assets/Styles/assets/global/img/PClinic.png,,
3015,مستوصف الشرقية,مستوصف الشرقية,,1,,-99,-99,,,,5,جدة,11,,,,,,,,,,,,,2017-06-08T10:56:58.42,,,,,,,,,-1.0,-1.0,https://eservices.moh.gov.sa/hospitals/assets/Styles/assets/global/img/PClinic.png,,
3016,مستوصف الشفاء,مستوصف الشفاء,,1,,-99,-99,,,,5,جدة,11,,,,,,,,,,,,,2017-06-08T10:56:58.42,,,,,,,,,-1.0,-1.0,https://eservices.moh.gov.sa/hospitals/assets/Styles/assets/global/img/PClinic.png,,
3019,مستوصف الشفاء بجده,مستوصف الشفاء بجده,,1,,-99,-99,,,,5,جدة,11,,,,,,,,,,,,,2017-06-08T10:56:58.42,,,,,,,,,-1.0,-1.0,https://eservices.moh.gov.sa/hospitals/assets/Styles/assets/global/img/PClinic.png,,
3022,مستوصف الصفا الطبي ,مستوصف الصفا الطبي ,,1,,-99,-99,,,,5,جدة,11,,,,,,,,,,,,,2017-06-08T10:56:58.42,,,,,,,,,-1.0,-1.0,https://eservices.moh.gov.sa/hospitals/assets/Styles/assets/global/img/PClinic.png,,
3024,مستوصف الظافر الطبي بجدة,مستوصف الظافر الطبي بجدة,,1,,-99,-99,,,,5,جدة,11,,,,,,,,,,,,,2017-06-08T10:56:58.42,,,,,,,,,-1.0,-1.0,https://eservices.moh.gov.sa/hospitals/assets/Styles/assets/global/img/PClinic.png,,
3027,مستوصف العائلة الطبي ,مستوصف العائلة الطبي ,,1,,-99,-99,,,,5,جدة,11,,,,,,,,,,,,,2017-06-08T10:56:58.42,,,,,,,,,-1.0,-1.0,https://eservices.moh.gov.sa/hospitals/assets/Styles/assets/global/img/PClinic.png,,
3032,مستوصف الغدير ,مستوصف الغدير ,,1,,-99,-99,,,,5,جدة,11,,,,,,,,,,,,,2017-06-08T10:56:58.42,,,,,,,,,-1.0,-1.0,https://eservices.moh.gov.sa/hospitals/assets/Styles/assets/global/img/PClinic.png,,
3033,مستوصف الغربية الطبي,مستوصف الغربية الطبي,,1,,-99,-99,,,,5,جدة,11,,,,,,,,,,,,,2017-06-08T10:56:58.42,,,,,,,,,-1.0,-1.0,https://eservices.moh.gov.sa/hospitals/assets/Styles/assets/global/img/PClinic.png,,
3034,مستوصف الفهد,مستوصف الفهد,,1,,-99,-99,,,,5,جدة,11,,,,,,,,,,,,,2017-06-08T10:56:58.42,,,,,,,,,-1.0,-1.0,https://eservices.moh.gov.sa/hospitals/assets/Styles/assets/global/img/PClinic.png,,
3035,مستوصف الفيروز الطبي,مستوصف الفيروز الطبي,,1,,-99,-99,,,,5,جدة,11,,,,,,,,,,,,,2017-06-08T10:56:58.42,,,,,,,,,-1.0,-1.0,https://eservices.moh.gov.sa/hospitals/assets/Styles/assets/global/img/PClinic.png,,
3036,مستوصف الفيصل 1,مستوصف الفيصل 1,,1,,-99,-99,,,,5,جدة,11,,,,,,,,,,,,,2017-06-08T10:56:58.42,,,,,,,,,-1.0,-1.0,https://eservices.moh.gov.sa/hospitals/assets/Styles/assets/global/img/PClinic.png,,
3037,مستوصف الفيصل 2,مستوصف الفيصل 2,,1,,-99,-99,,,,5,جدة,11,,,,,,,,,,,,,2017-06-08T10:56:58.42,,,,,,,,,-1.0,-1.0,https://eservices.moh.gov.sa/hospitals/assets/Styles/assets/global/img/PClinic.png,,
3038,مستوصف القبساني الطبي ,مستوصف القبساني الطبي ,,1,,-99,-99,,,,5,جدة,11,,,,,,,,,,,,,2017-06-08T10:56:58.42,,,,,,,,,-1.0,-1.0,https://eservices.moh.gov.sa/hospitals/assets/Styles/assets/global/img/PClinic.png,,
3039,مستوصف الليث الوطني,مستوصف الليث الوطني,,1,,-99,-99,,,,135,الليث,11,,,,,,,,,,,,,2017-06-08T10:56:58.42,,,,,,,,,-1.0,-1.0,https://eservices.moh.gov.sa/hospitals/assets/Styles/assets/global/img/PClinic.png,,
3040,مستوصف المدينة الطبي,مستوصف المدينة الطبي,,1,,-99,-99,,,,5,جدة,11,,,,,,,,,,,,,2017-06-08T10:56:58.42,,,,,,,,,-1.0,-1.0,https://eservices.moh.gov.sa/hospitals/assets/Styles/assets/global/img/PClinic.png,,
3048,مستوصف النخيل الطبي رابغ ,مستوصف النخيل الطبي ـ رابغ ,,1,,-99,-99,,,,5,جدة,11,,,,,,,,,,,,,2017-06-08T10:56:58.42,,,,,,,,,-1.0,-1.0,https://eservices.moh.gov.sa/hospitals/assets/Styles/assets/global/img/PClinic.png,,
3051,مستوصف النهضة الطبي,مستوصف النهضة الطبي,,1,,-99,-99,,,,5,جدة,11,,,,,,,,,,,,,2017-06-08T10:56:58.42,,,,,,,,,-1.0,-1.0,https://eservices.moh.gov.sa/hospitals/assets/Styles/assets/global/img/PClinic.png,,
3053,مستوصف الهدير الطبي,مستوصف الهدير الطبي,,1,,-99,-99,,,,5,جدة,11,,,,,,,,,,,,,2017-06-08T10:56:58.42,,,,,,,,,-1.0,-1.0,https://eservices.moh.gov.sa/hospitals/assets/Styles/assets/global/img/PClinic.png,,
3054,مستوصف الواحة الطبي ,مستوصف الواحة الطبي ,,1,,-99,-99,,,,5,جدة,11,,,,,,,,,,,,,2017-06-08T10:56:58.42,,,,,,,,,-1.0,-1.0,https://eservices.moh.gov.sa/hospitals/assets/Styles/assets/global/img/PClinic.png,,
3055,مستوصف الوسيم,مستوصف الوسيم,,1,,-99,-99,,,,5,جدة,11,,,,,,,,,,,,,2017-06-08T10:56:58.42,,,,,,,,,-1.0,-1.0,https://eservices.moh.gov.sa/hospitals/assets/Styles/assets/global/img/PClinic.png,,
3056,مستوصف الوليد الطبي,مستوصف الوليد الطبي,,1,,-99,-99,,,,5,جدة,11,,,,,,,,,,,,,2017-06-08T10:56:58.42,,,,,,,,,-1.0,-1.0,https://eservices.moh.gov.sa/hospitals/assets/Styles/assets/global/img/PClinic.png,,
3057,مستوصف اليامي2,مستوصف اليامي2,,1,,-99,-99,,,,5,جدة,11,,,,,,,,,,,,,2017-06-08T10:56:58.42,,,,,,,,,-1.0,-1.0,https://eservices.moh.gov.sa/hospitals/assets/Styles/assets/global/img/PClinic.png,,
3059,مستوصف أثير الخليج ,مستوصف أثير الخليج ,,1,,-99,-99,,,,5,جدة,11,,,,,,,,,,,,,2017-06-08T10:56:58.42,,,,,,,,,-1.0,-1.0,https://eservices.moh.gov.sa/hospitals/assets/Styles/assets/global/img/PClinic.png,,
3061,مستوصف بدر الدين - الاسكان,مستوصف بدر الدين - الاسكان,,1,,-99,-99,,,,5,جدة,11,,,,,,,,,,,,,2017-06-08T10:56:58.42,,,,,,,,,-1.0,-1.0,https://eservices.moh.gov.sa/hospitals/assets/Styles/assets/global/img/PClinic.png,,
3062,مستوصف بدر الدين - باب مكه,مستوصف بدر الدين - باب مكه,,1,,-99,-99,,,,5,جدة,11,,,,,,,,,,,,,2017-06-08T10:56:58.42,,,,,,,,,-1.0,-1.0,https://eservices.moh.gov.sa/hospitals/assets/Styles/assets/global/img/PClinic.png,,
3064,مستوصف بني مالك,مستوصف بني مالك,,1,,-99,-99,,,,5,جدة,11,,,,,,,,,,,,,2017-06-08T10:56:58.42,,,,,,,,,-1.0,-1.0,https://eservices.moh.gov.sa/hospitals/assets/Styles/assets/global/img/PClinic.png,,
3067,مستوصف جدة الطبي حي المصفاة ,مستوصف جدة الطبي ـ حي المصفاة ,,1,,-99,-99,,,,5,جدة,11,,,,,,,,,,,,,2017-06-08T10:56:58.42,,,,,,,,,-1.0,-1.0,https://eservices.moh.gov.sa/hospitals/assets/Styles/assets/global/img/PClinic.png,,
3075,مستوصف حي السبيل ,مستوصف حي السبيل ,,1,,-99,-99,,,,5,جدة,11,,,,,,,,,,,,,2017-06-08T10:56:58.42,,,,,,,,,-1.0,-1.0,https://eservices.moh.gov.sa/hospitals/assets/Styles/assets/global/img/PClinic.png,,
3076,مستوصف خالد الطبي بجدة,مستوصف خالد الطبي بجدة,,1,,-99,-99,,,,5,جدة,11,,,,,,,,,,,,,2017-06-08T10:56:58.42,,,,,,,,,-1.0,-1.0,https://eservices.moh.gov.sa/hospitals/assets/Styles/assets/global/img/PClinic.png,,
3080,مستوصف ربيع المملكة,مستوصف ربيع المملكة,,1,,-99,-99,,,,5,جدة,11,,,,,,,,,,,,,2017-06-08T10:56:58.42,,,,,,,,,-1.0,-1.0,https://eservices.moh.gov.sa/hospitals/assets/Styles/assets/global/img/PClinic.png,,
3084,مستوصف سابا,مستوصف سابا,,1,,-99,-99,,,,5,جدة,11,,,,,,,,,,,,,2017-06-08T10:56:58.42,,,,,,,,,-1.0,-1.0,https://eservices.moh.gov.sa/hospitals/assets/Styles/assets/global/img/PClinic.png,,
3093,مستوصف صفا المدينة,مستوصف صفا المدينة,,1,,-99,-99,,,,5,جدة,11,,,,,,,,,,,,,2017-06-08T10:56:58.42,,,,,,,,,-1.0,-1.0,https://eservices.moh.gov.sa/hospitals/assets/Styles/assets/global/img/PClinic.png,,
3095,مستوصف عادل الأهلي ,مستوصف عادل الأهلي ,,1,,-99,-99,,,,5,جدة,11,,,,,,,,,,,,,2017-06-08T10:56:58.42,,,,,,,,,-1.0,-1.0,https://eservices.moh.gov.sa/hospitals/assets/Styles/assets/global/img/PClinic.png,,
3097,مستوصف علي ظافر,مستوصف علي ظافر,,1,,-99,-99,,,,5,جدة,11,,,,,,,,,,,,,2017-06-08T10:56:58.42,,,,,,,,,-1.0,-1.0,https://eservices.moh.gov.sa/hospitals/assets/Styles/assets/global/img/PClinic.png,,
3098,مستوصف فلسطين,مستوصف فلسطين,,1,,-99,-99,,,,5,جدة,11,,,,,,,,,,,,,2017-06-08T10:56:58.42,,,,,,,,,-1.0,-1.0,https://eservices.moh.gov.sa/hospitals/assets/Styles/assets/global/img/PClinic.png,,
3100,مستوصف محمد حسن كافي الطبي ,مستوصف محمد حسن كافي الطبي ,,1,,-99,-99,,,,5,جدة,11,,,,,,,,,,,,,2017-06-08T10:56:58.42,,,,,,,,,-1.0,-1.0,https://eservices.moh.gov.sa/hospitals/assets/Styles/assets/global/img/PClinic.png,,
3101,مستوصف محمد عبدالرحمن سليماني,مستوصف محمد عبدالرحمن سليماني,,1,,-99,-99,,,,5,جدة,11,,,,,,,,,,,,,2017-06-08T10:56:58.42,,,,,,,,,-1.0,-1.0,https://eservices.moh.gov.sa/hospitals/assets/Styles/assets/global/img/PClinic.png,,
3106,مستوصف نجد الطبي,مستوصف نجد الطبي,,1,,-99,-99,,,,5,جدة,11,,,,,,,,,,,,,2017-06-08T10:56:58.42,,,,,,,,,-1.0,-1.0,https://eservices.moh.gov.sa/hospitals/assets/Styles/assets/global/img/PClinic.png,,
3107,مستوصف ياسر الطبي,مستوصف ياسر الطبي,,1,,-99,-99,,,,5,جدة,11,,,,,,,,,,,,,2017-06-08T10:56:58.42,,,,,,,,,-1.0,-1.0,https://eservices.moh.gov.sa/hospitals/assets/Styles/assets/global/img/PClinic.png,,
3109,موسسة سندس محمد علي محمد لاري,موسسة سندس محمد علي محمد لاري,,1,,-99,-99,,,,5,جدة,15,,,,,,,,,,,,,2017-06-08T10:56:58.42,,,,,,,,,-1.0,-1.0,https://eservices.moh.gov.sa/hospitals/assets/Styles/assets/global/img/GMCenter.png,,
3110,مؤسسة نهاد محمد صالح إسلام( عيادات علاجية مجمعة),مؤسسة نهاد محمد صالح إسلام( عيادات علاجية مجمعة),,1,,-99,-99,,,,5,جدة,15,,,,,,,,,,,,,2017-06-08T10:56:58.42,,,,,,,,,-1.0,-1.0,https://eservices.moh.gov.sa/hospitals/assets/Styles/assets/global/img/GMCenter.png,,
3326,أم الحطب,Umm al-Hatab,,1,,-99,-99,,,,89,أضم,8,,,,,,,,,,,,,2019-06-30T08:10:44.38,,NULL,,,,,,,40.82622,20.21484,https://eservices.moh.gov.sa/hospitals/assets/Styles/assets/global/img/Mcenter.png,,
3407,الماجد,Al-Majed ,,1,,-99,-99,,,,5,جدة,8,,,,,,,,,,,,,2018-10-18T16:26:33.87,,NULL,,,,,,,39.194298,21.764218,https://eservices.moh.gov.sa/hospitals/assets/Styles/assets/global/img/Mcenter.png,,
3449,الرحاب,AlRahab,PHC,1,,99,99,,,,5,جدة,8,,,,,,,,,,,,,2020-05-08T17:53:26.9,,,,,,,,,39.2264311,21.5491859,https://eservices.moh.gov.sa/hospitals/assets/Styles/assets/global/img/Mcenter.png,,
3469,الرياحين,Al-Rayaheen,,1,,-99,-99,,,,135,الليث,8,,,,,,,,,,,,,2019-06-14T12:44:09.293,,NULL,,,,,,,40.70452,20.72291,https://eservices.moh.gov.sa/hospitals/assets/Styles/assets/global/img/Mcenter.png,,
3582,كيلو 13,Kilo 13,,1,,-99,-99,,,,5,جدة,8,,,,,,,,,,,,,2019-06-30T07:56:29.193,,NULL,,,,,,,39.302003,21.454687,https://eservices.moh.gov.sa/hospitals/assets/Styles/assets/global/img/Mcenter.png,,
3583,القرينية,Al-Qariniah,,1,,-99,-99,,,,5,جدة,8,,,,,,,,,,,,,2019-07-09T08:56:31.203,,NULL,,,,,,,39.24471,21.30768,https://eservices.moh.gov.sa/hospitals/assets/Styles/assets/global/img/Mcenter.png,,
3605,المرجانية,Al-Marjaniya,,1,,-99,-99,,,,169,رابغ,8,,,,,,,,,,,,,2019-06-30T08:05:32.163,,NULL,,,,,,,39.056355,22.796957,https://eservices.moh.gov.sa/hospitals/assets/Styles/assets/global/img/Mcenter.png,,
3606,المرخة,Al-Markha,,1,,-99,-99,,,,169,رابغ,8,,,,,,,,,,,,,2019-06-14T12:21:51.063,,NULL,,,,,,,39.74094,23.050271,https://eservices.moh.gov.sa/hospitals/assets/Styles/assets/global/img/Mcenter.png,,
3714,خالد النموذجي,خالد النموذجي,kkk,1,,99,99,,,,5,جدة,8,,,,,,,,,,,,,2020-02-18T08:48:34.71,,,,,,,,,39.14615393,21.79672185,https://eservices.moh.gov.sa/hospitals/assets/Styles/assets/global/img/Mcenter.png,,
3732,سعيا الميقات,saee almqa,PHC,1,,99,99,,,,135,الليث,8,,,,,,,,,,,,,2019-06-14T13:12:18.423,,,,,,,,,39.87437187,20.51629195,https://eservices.moh.gov.sa/hospitals/assets/Styles/assets/global/img/Mcenter.png,,
3755,عبيد والصواعد,عبيد والصواعد,,1,,-99,-99,,,,5,جدة,8,,,,,,,,,,,,,2017-04-19T15:38:04.727,,NULL,,,,,,,39.28265,21.493,https://eservices.moh.gov.sa/hospitals/assets/Styles/assets/global/img/Mcenter.png,,
3826,مركز الشمال للأسنان,مركز الشمال للأسنان,,1,,-99,-99,,,,5,جدة,8,,,,,,,,,,,,,2017-04-19T16:43:54.833,,NULL,,,,,,,-1.0,-1.0,https://eservices.moh.gov.sa/hospitals/assets/Styles/assets/global/img/Mcenter.png,,
3827,مركز السكر,مركز السكر,,1,,-99,-99,,,,5,جدة,8,,,,,,,,,,,,,2017-04-19T16:43:54.833,,NULL,,,,,,,-1.0,-1.0,https://eservices.moh.gov.sa/hospitals/assets/Styles/assets/global/img/Mcenter.png,,
3828,مركز الدرن,مركز الدرن,,1,,-99,-99,,,,5,جدة,8,,,,,,,,,,,,,2017-04-19T16:43:54.833,,NULL,,,,,,,-1.0,-1.0,https://eservices.moh.gov.sa/hospitals/assets/Styles/assets/global/img/Mcenter.png,,
3829,مركز الصحة العامة,مركز الصحة العامة,,1,,-99,-99,,,,5,جدة,8,,,,,,,,,,,,,2017-04-19T16:43:54.833,,NULL,,,,,,,-1.0,-1.0,https://eservices.moh.gov.sa/hospitals/assets/Styles/assets/global/img/Mcenter.png,,
3850,عيادة فحص السموم بجدة,Poison Control Cenetr - Jeddah,,1,,-99,-99,,,,5,جدة,35,,,,,,,,,,,,,,,,,,,,,,-1.0,-1.0,https://eservices.moh.gov.sa/hospitals/assets/Styles/assets/global/img/PCCClinic.png,,
3853,مختبرات البرج الطبية بجدة,Al Borg Medical Laboratories in jeddah,,1,,-99,-99,,,,5,جدة,3,,,,,,,,,,,,,,,,,,,,,,-1.0,-1.0,https://eservices.moh.gov.sa/hospitals/assets/Styles/assets/global/img/PHospital.png,,
3854,مجمع عيادات الدكتور هاني الرقبان,مجمع عيادات الدكتور هاني الرقبان,,1,,-99,-99,,,,5,جدة,3,,,,,,,,,,,,,,,,,,,,,,-1.0,-1.0,https://eservices.moh.gov.sa/hospitals/assets/Styles/assets/global/img/PHospital.png,,
3855,مجمع عيادات الريان,مجمع عيادات الريان,,1,,-99,-99,,,,5,جدة,3,,,,,,,,,,,,,,,,,,,,,,-1.0,-1.0,https://eservices.moh.gov.sa/hospitals/assets/Styles/assets/global/img/PHospital.png,,
3856,مستوصف مستشارك,مستوصف مستشارك,,1,,-99,-99,,,,5,جدة,3,,,,,,,,,,,,,,,,,,,,,,-1.0,-1.0,https://eservices.moh.gov.sa/hospitals/assets/Styles/assets/global/img/PHospital.png,,
3857,العيادات الشاملة التخصصية لقوى الامن بجدة,العيادات الشاملة التخصصية لقوى الامن بجدة,,1,,-99,-99,,,,5,جدة,3,,,,,,,,,,,,,,,,,,,,,,-1.0,-1.0,https://eservices.moh.gov.sa/hospitals/assets/Styles/assets/global/img/PHospital.png,,
3858,الفحص الشامل بمدائن الفهد,الفحص الشامل بمدائن الفهد,,1,,-99,-99,,,,5,جدة,3,,,,,,,,,,,,,,,,,,,,,,-1.0,-1.0,https://eservices.moh.gov.sa/hospitals/assets/Styles/assets/global/img/PHospital.png,,
3868,مجمع عبد الرحمن السهلي الطبي العام,مجمع عبد الرحمن السهلي الطبي العام,,1,,-99,-99,,,,5,جدة,3,,,,,,,,,,,,,,,,,,,,,,-1.0,-1.0,https://eservices.moh.gov.sa/hospitals/assets/Styles/assets/global/img/PHospital.png,,
3870,مستشفى خالد ادريس,مستشفى خالد ادريس,,1,,-99,-99,,,,5,جدة,3,,,,,,,,,,,,,,,,,,,,,,-1.0,-1.0,https://eservices.moh.gov.sa/hospitals/assets/Styles/assets/global/img/PHospital.png,,
3871,مستشفى آية,Aya Specialist Hospital - Jeddah,ASH,1,,99,99,40,,,5,جدة,3,,,,,,,,,,,,,2020-10-27T13:21:11.283,,920012342,,,,,,,39.12321887,21.66061061,https://eservices.moh.gov.sa/hospitals/assets/Styles/assets/global/img/PHospital.png,,
3872,مستشفى المركز الطبي الدولي,International Medical Center,IMH,1,,99,99,,,,5,جدة,3,,,,,,,,,,,,,2020-07-24T00:03:32.963,,,,,,,,,39.174217,21.51383,https://eservices.moh.gov.sa/hospitals/assets/Styles/assets/global/img/PHospital.png,,
3873,المختبر الاقليمي بجدة,Pre-Marital medical exam center, PTEC,1,,99,99,,,,5,جدة,14,,,,,,,,,,,,,2019-11-14T11:30:16.797,,,,,,,,,39.205467,21.440654,https://eservices.moh.gov.sa/hospitals/assets/Styles/assets/global/img/SPCenter.png,,
4002,اسكان الشرقية,اسكان الشرقية,,1,,-99,-99,,,,5,جدة,8,,,,,,,,,,,,,2017-04-19T15:38:04.727,,NULL,,,,,,,-1.0,-1.0,https://eservices.moh.gov.sa/hospitals/assets/Styles/assets/global/img/Mcenter.png,,
4003,الاجاويد والسنابل,الاجاويد والسنابل,,1,,-99,-99,,,,5,جدة,8,,,,,,,,,,,,,2019-06-28T05:52:41.977,,NULL,,,,,,,-1.0,-1.0,https://eservices.moh.gov.sa/hospitals/assets/Styles/assets/global/img/Mcenter.png,,
4004,البساتين ,البساتين ,,1,,-99,-99,,,,5,جدة,8,,,,,,,,,,,,,2017-04-19T15:38:04.727,,NULL,,,,,,,-1.0,-1.0,https://eservices.moh.gov.sa/hospitals/assets/Styles/assets/global/img/Mcenter.png,,
4005,البغدادية,البغدادية,,1,,-99,-99,,,,5,جدة,8,,,,,,,,,,,,,2017-04-19T15:38:04.727,,NULL,,,,,,,-1.0,-1.0,https://eservices.moh.gov.sa/hospitals/assets/Styles/assets/global/img/Mcenter.png,,
4006,البوادي1,Bawadi 1,PHC,1,,99,99,,,,5,جدة,8,,,,,,,,,,,,,2021-02-16T10:59:40.55,,,,,,,,,39.16139,21.6137,https://eservices.moh.gov.sa/hospitals/assets/Styles/assets/global/img/Mcenter.png,,
4007,التوفيق,التوفيق,,1,,-99,-99,,,,5,جدة,8,,,,,,,,,,,,,2017-04-19T15:38:04.727,,NULL,,,,,,,39.243991,21.581469,https://eservices.moh.gov.sa/hospitals/assets/Styles/assets/global/img/Mcenter.png,,
4008,الجامعه 2,الجامعه 2,,1,,-99,-99,,,,5,جدة,8,,,,,,,,,,,,,2017-04-19T15:38:04.727,,NULL,,,,,,,-1.0,-1.0,https://eservices.moh.gov.sa/hospitals/assets/Styles/assets/global/img/Mcenter.png,,
4009,الجوبة,Al-Joubah,,1,,-99,-99,,,,169,رابغ,8,,,,,,,,,,,,,2019-06-14T12:19:32.963,,NULL,,,,,,,39.71291672,23.00244145,https://eservices.moh.gov.sa/hospitals/assets/Styles/assets/global/img/Mcenter.png,,
4010,الحرمين,الحرمين,,1,,-99,-99,,,,5,جدة,8,,,,,,,,,,,,,2017-04-19T15:38:04.727,,NULL,,,,,,,-1.0,-1.0,https://eservices.moh.gov.sa/hospitals/assets/Styles/assets/global/img/Mcenter.png,,
4011,الربوة 2,الربوة 2,,1,,-99,-99,,,,5,جدة,8,,,,,,,,,,,,,2017-04-19T15:38:04.727,,NULL,,,,,,,-1.0,-1.0,https://eservices.moh.gov.sa/hospitals/assets/Styles/assets/global/img/Mcenter.png,,
4012,الربيع والتوفيق,Al-Rabeea and al-Tafeek,PHC ,1,,99,99,,,,5,جدة,8,,,,,,,,,,,,,2020-05-08T17:48:36.887,,,,,,,,,39.2440405,21.5812782,https://eservices.moh.gov.sa/hospitals/assets/Styles/assets/global/img/Mcenter.png,,
4013,الرغامة,Al-Raghama,,1,,-99,-99,,,,5,جدة,8,,,,,,,,,,,,,2019-06-30T07:33:16.53,,NULL,,,,,,,39.282603,21.49284,https://eservices.moh.gov.sa/hospitals/assets/Styles/assets/global/img/Mcenter.png,,
4014,الرنيفة,Al-Renaifa,,1,,-99,-99,,,,135,الليث,8,,,,,,,,,,,,,2019-06-14T13:03:18.637,,NULL,,,,,,,40.365328,20.869336,https://eservices.moh.gov.sa/hospitals/assets/Styles/assets/global/img/Mcenter.png,,
4015,الروضة,الروضة,,1,,-99,-99,,,,5,جدة,8,,,,,,,,,,,,,2017-04-19T15:38:04.727,,NULL,,,,,,,-1.0,-1.0,https://eservices.moh.gov.sa/hospitals/assets/Styles/assets/global/img/Mcenter.png,,
4016,الريان,Al-Rayan,,1,,-99,-99,,,,5,جدة,8,,,,,,,,,,,,,2019-06-30T07:58:15.09,,NULL,,,,,,,39.215937,21.708359,https://eservices.moh.gov.sa/hospitals/assets/Styles/assets/global/img/Mcenter.png,,
4017,السبيل,السبيل,,1,,-99,-99,,,,5,جدة,8,,,,,,,,,,,,,2017-04-19T15:38:04.727,,NULL,,,,,,,-1.0,-1.0,https://eservices.moh.gov.sa/hospitals/assets/Styles/assets/global/img/Mcenter.png,,
4018,السرورية,السرورية,,1,,-99,-99,,,,5,جدة,8,,,,,,,,,,,,,2017-04-19T15:38:04.727,,NULL,,,,,,,-1.0,-1.0,https://eservices.moh.gov.sa/hospitals/assets/Styles/assets/global/img/Mcenter.png,,
4019,الصفا 3,الصفا 3,,1,,-99,-99,,,,5,جدة,8,,,,,,,,,,,,,2017-04-19T15:38:04.727,,NULL,,,,,,,-1.0,-1.0,https://eservices.moh.gov.sa/hospitals/assets/Styles/assets/global/img/Mcenter.png,,
4020,العزيزية 2 ,العزيزية 2 ,aaz2,1,,99,99,,,,5,جدة,8,,,,,,,,,,,,,2020-02-18T08:57:31.187,,,,,,,,,-1.0,-1.0,https://eservices.moh.gov.sa/hospitals/assets/Styles/assets/global/img/Mcenter.png,,
4021,الكندرة,الكندرة,,1,,-99,-99,,,,5,جدة,8,,,,,,,,,,,,,2017-04-19T15:38:04.727,,NULL,,,,,,,-1.0,-1.0,https://eservices.moh.gov.sa/hospitals/assets/Styles/assets/global/img/Mcenter.png,,
4022,الماجد,Al-Majed,PHC,1,,99,99,,,,5,جدة,8,,,,,,,,,,,,,2019-06-30T07:57:50.42,,,,,,,,,39.1942982,21.7642181,https://eservices.moh.gov.sa/hospitals/assets/Styles/assets/global/img/Mcenter.png,,
4023,المحاميد ,المحاميد ,,1,,-99,-99,,,,5,جدة,8,,,,,,,,,,,,,2017-04-19T15:38:04.727,,NULL,,,,,,,-1.0,-1.0,https://eservices.moh.gov.sa/hospitals/assets/Styles/assets/global/img/Mcenter.png,,
4024,المحمدية,المحمدية,,1,,-99,-99,,,,5,جدة,8,,,,,,,,,,,,,2017-04-19T15:38:04.727,,NULL,,,,,,,-1.0,-1.0,https://eservices.moh.gov.sa/hospitals/assets/Styles/assets/global/img/Mcenter.png,,
4025,المراج ( بني ھلال ),Al-Maraj,,1,,-99,-99,,,,135,الليث,8,,,,,,,,,,,,,2019-06-30T08:22:48.293,,NULL,,,,,,,40.6931,20.28953,https://eservices.moh.gov.sa/hospitals/assets/Styles/assets/global/img/Mcenter.png,,
4026,المطار القديم 2,المطار القديم 2,,1,,-99,-99,,,,5,جدة,8,,,,,,,,,,,,,2017-04-19T15:38:04.727,,NULL,,,,,,,-1.0,-1.0,https://eservices.moh.gov.sa/hospitals/assets/Styles/assets/global/img/Mcenter.png,,
4027,المنتزهات 2,المنتزهات 2,,1,,-99,-99,,,,5,جدة,8,,,,,,,,,,,,,2017-04-19T15:38:04.727,,NULL,,,,,,,-1.0,-1.0,https://eservices.moh.gov.sa/hospitals/assets/Styles/assets/global/img/Mcenter.png,,
4028,بيرين*,بيرين*,,1,,-99,-99,,,,135,الليث,8,,,,,,,,,,,,,2017-04-19T15:38:04.727,,NULL,,,,,,,40.45155,20.71609,https://eservices.moh.gov.sa/hospitals/assets/Styles/assets/global/img/Mcenter.png,,
4029,ذي رهجان,The Rahjan,,1,,-99,-99,,,,89,أضم,8,,,,,,,,,,,,,2019-06-30T08:09:51.913,,NULL,,,,,,,41.08235478,20.29728447,https://eservices.moh.gov.sa/hospitals/assets/Styles/assets/global/img/Mcenter.png,,
4030,سلم الزواهر,slm alzoahr,slm,1,,99,99,,,,5,جدة,8,,,,,,,,2016,,,,,2020-02-18T08:53:57.74,,,,,Slam-zwaher1438@hotmail.com,,,,40.73897644,19.82367989,https://eservices.moh.gov.sa/hospitals/assets/Styles/assets/global/img/Mcenter.png,,
4033,مرخة,مرخة,,1,,-99,-99,,,,169,رابغ,8,,,,,,,,,,,,,2017-04-19T15:38:04.727,,NULL,,,,,,,39.740167,23.047216,https://eservices.moh.gov.sa/hospitals/assets/Styles/assets/global/img/Mcenter.png,,
4034,نويبع,نويبع,,1,,-99,-99,,,,169,رابغ,8,,,,,,,,,,,,,2019-06-11T08:46:27.443,,NULL,,,,,,,39.271721,22.88855,https://eservices.moh.gov.sa/hospitals/assets/Styles/assets/global/img/Mcenter.png,,
4150,الشراع,Ashirae,PHC,1,,99,99,,,,5,جدة,8,,,,,,,,,,,,,2020-05-08T17:51:28.933,,,,,,,,,39.089243,21.769146,https://eservices.moh.gov.sa/hospitals/assets/Styles/assets/global/img/Mcenter.png,,
4151,الوفاء,Alwafa,PHC,1,,99,99,,,,5,جدة,8,,,,,,,,,,,,,2019-06-30T08:02:31.527,,,,,,,,,39.2337834,21.8605055,https://eservices.moh.gov.sa/hospitals/assets/Styles/assets/global/img/Mcenter.png,,
4152,النهضه,Al-Nahdah,PHC,1,,99,99,,,,5,جدة,8,,,,,,,,,,,,,2019-07-09T08:53:08.247,,,,,,,,,39.124543,21.6114222,https://eservices.moh.gov.sa/hospitals/assets/Styles/assets/global/img/Mcenter.png,,
4171,مستشفى الدكتور سمير عباس,DR.Samir Abbas Hospital,SAH,1,,,,102,,,5,جدة,3,,,,1,,,102,2017,1438,,,1,,,012687777,6187777,,info@dsah.sa,,,,39.12438229,21.55395468,https://eservices.moh.gov.sa/hospitals/assets/Styles/assets/global/img/PHospital.png,,
4172,مستشفى الولادة والأطفال التخصصي بالشمال,Hospital of Childbirth and Specialized Children,CSH,1,,,,400,,,5,جدة,1,,,,1,,,,,,,,,2024-11-03T11:16:11.383,,0126652600,,,,,,,39.09825757,21.76626281,https://eservices.moh.gov.sa/hospitals/assets/Styles/assets/global/img/hospital.png,,
4199,المستشفى السعودي الالماني - جدة,Saudi German Hospital,SGHJ,1,,,,220,,,5,جدة,3,,,,,,,,,,,,,,,2606000,6835874,,ceo1.jed@sghgroup.net,,,,39.13314238,21.59735505,https://eservices.moh.gov.sa/hospitals/assets/Styles/assets/global/img/PHospital.png,,
4203,مركز الملك فيصل لأمراض القلب بمدينة الملك عبدالعزيز الطبية بجدة ,King Faisal Center for Cardiology ,KFCC,1,,,,,,,5,جدة,6,,,,,,,,,,,,,,,2266666,2266200,,CCNI@ngha.med.sa,,,,39.36393038,21.42662201,https://eservices.moh.gov.sa/hospitals/assets/Styles/assets/global/img/MHospital.png,,
4225,مركز السكر بمستشفى الملك عبد العزيز التخصصي - جدة,Diabetes Center in King Abdulaziz Hospital,DCAHJ,1,,,,,,,5,جدة,14,,,,,,,,,,,,,2018-10-18T16:11:22.08,,126368392,,,,,,,39.206708,21.444233,https://eservices.moh.gov.sa/hospitals/assets/Styles/assets/global/img/SPCenter.png,,
4239,مركز التأهيل الطبي بمستشفى الملك عبدالعزيز بجدة,Directorate of health care in in Jeddah,DHCJ,1,,,,,,,5,جدة,14,,,,,,,,,,,,,2018-10-18T16:11:22.08,,126375555,,,,,,,39.2057897,21.444248,https://eservices.moh.gov.sa/hospitals/assets/Styles/assets/global/img/SPCenter.png,,
4262,مركز طب الأسنان التخصصي بمستشفى الثغر,Specialized dental center at Thager Hospital,SDCTH,1,,,,,,,5,جدة,14,,,,,,,,,,,,,,,126202333,,,,,,,39.302161,21.43985,https://eservices.moh.gov.sa/hospitals/assets/Styles/assets/global/img/SPCenter.png,,
4271,مركز طب الأسنان التخصصي بمستشفى الملك فهد,Specialized dental center at King Fahad Hospital,SDCFH,1,,,,,,,5,جدة,14,,,,,,,,,,,,,2018-11-07T11:00:23.103,,126606111,,,,,,,39.160966,21.630674,https://eservices.moh.gov.sa/hospitals/assets/Styles/assets/global/img/SPCenter.png,,
4450,بيرين,berrin,PHCb,1,,,,,,,5,جدة,8,,,,,,,,,,,,,2019-06-30T08:22:10.987,,,,,,,,,40.4516196,20.7160638,https://eservices.moh.gov.sa/hospitals/assets/Styles/assets/global/img/Mcenter.png,,
4508,الجحفة,alJafeh,PHC,1,,,,,,,5,جدة,8,,,,,,,,,,,,,2020-12-09T08:03:38.443,,,,,,,,,39.14747926,22.70384154,https://eservices.moh.gov.sa/hospitals/assets/Styles/assets/global/img/Mcenter.png,,
4545,مستشفى إن إم سي للرعاية الصحية ,NMC Hospital,NMCH,1,,,,150,,,5,جدة,3,,,,,,50,,2017,,,,,2020-09-28T14:19:46.22,,0126180600,,,info@msccc-sa.com,,,,39.18306705,21.4956155,https://eservices.moh.gov.sa/hospitals/assets/Styles/assets/global/img/PHospital.png,,
4561,مركز الطب الشرعي والوفيات بصحة جده,Center of Forensic Medicine and Deaths in Jeddah,CFMDJ,1,,,,,,,5,جدة,14,,,,,,,,,,,,,,,,,,,,,,-1.0,-1.0,https://eservices.moh.gov.sa/hospitals/assets/Styles/assets/global/img/SPCenter.png,,
4562,مراكز المراقبة الصحية بمطار الملك عبدالعزيز,Health Monitoring Centers at King Abdulaziz Airport,HMCKAA,1,,,,,,,5,جدة,14,,,,,,,,,,,,,,,,,,,,,,-1.0,-1.0,https://eservices.moh.gov.sa/hospitals/assets/Styles/assets/global/img/SPCenter.png,,
4587,مجمع عيادتي الطبي,myclinic,MCC,1,,,,,,,5,جدة,15,,,,,,,,,,,,,,,,,,,,,,-1.0,-1.0,https://eservices.moh.gov.sa/hospitals/assets/Styles/assets/global/img/GMCenter.png,,
4642,مركز ديافرم مستشفى الأمير عبد المجيد ,Diaverum Center at Prince Abdulmajeed Hospital PHC Center,Dvm,1,,,,94,,,5,جدة,16,,,,,,,,2014,,,,,,,0504515576,,,,,,,39.165555,21.544674,https://eservices.moh.gov.sa/hospitals/assets/Styles/assets/global/img/SPCenter.png,,
4643,مركز دافيتا مستشفى الملك عبد العزيز جدة,DaVita Center at King Abdulaziz Hospital Jeddah,Dva,1,,,,52,,,5,جدة,16,,,,,,,,2014,,,,,,,0557700484,,,,,,,39.207511,21.443223,https://eservices.moh.gov.sa/hospitals/assets/Styles/assets/global/img/SPCenter.png,,
4644,مركز دافيتا مستشفى شرق جدة,DaVita Center at East Jeddah Hospital,Dva,1,,,,60,,,5,جدة,16,,,,,,,,2015,,,,,,,0553037571,,,,,,,39.251521,21.51062,https://eservices.moh.gov.sa/hospitals/assets/Styles/assets/global/img/SPCenter.png,,
4645,مركز ديافرم شمال جدة,Diaverum Center North Jeddah ,Dvm,1,,,,30,,,5,جدة,16,,,,,,,,2015,,,,,,,0567708798,,,,,,,39.151838,21.618105,https://eservices.moh.gov.sa/hospitals/assets/Styles/assets/global/img/SPCenter.png,,
4668,مركز صحي الفضيلة,ALFADILAH- PHC,PHC,1,,,,,,,5,جدة,8,,,,,,,,,,,,,2019-06-30T07:48:55.41,,,,,,,,,39.2639166,21.323356,https://eservices.moh.gov.sa/hospitals/assets/Styles/assets/global/img/Mcenter.png,,
4670,مركز صحي المجيرمة,Almgairmah-PHC,PHC,1,,,,,,,135,الليث,8,,,,,,,,1440,,,,,2019-06-11T08:39:16.433,,,,,,,,,39.727669,20.476823,https://eservices.moh.gov.sa/hospitals/assets/Styles/assets/global/img/Mcenter.png,,
4671,مركز صحي منسا بجالة,Mansa Bgalah- PCH,PHC,1,,,,,,,135,الليث,8,,,,,,,,,1440,,,,,,,,,,,,,40.597994,20.419461,https://eservices.moh.gov.sa/hospitals/assets/Styles/assets/global/img/Mcenter.png,,
4672,مركز صحي حفار,Hafar - PHC,PHC,1,,,,,,,135,الليث,8,,,,,,,,1440,,,,,2019-06-30T08:17:39.063,,,,,,,,,40.859862,19.72008,https://eservices.moh.gov.sa/hospitals/assets/Styles/assets/global/img/Mcenter.png,,
4962,مركز القلب بمستشفى الملك فهد للقوات المسلحة ,Cardiac Center King Fahd Armed Forces Hospital,CCKFAFH,1,,,,,,,5,جدة,6,,,,,,,63,,,,,,,,0122328854,,,kfalshaibi@gmail.com,,,,39.12944231,21.54213283,https://eservices.moh.gov.sa/hospitals/assets/Styles/assets/global/img/MHospital.png,,
4998,مركز المراقبة الصحية بصالات الحج ,Health Surveillance Center in hajj hall,phc,1,,,,,,,5,جدة,8,,,,,,,,,,,,,,,,,,,,,,39.141305,21.701782,https://eservices.moh.gov.sa/hospitals/assets/Styles/assets/global/img/Mcenter.png,,
4999,مركز المراقبة الصحية بصالة الشمالية,Health Surveillance Center in north hall,phc,1,,,,,,,5,جدة,8,,,,,,,,,,,,,,,,,,,,,,39.143411,21.687486,https://eservices.moh.gov.sa/hospitals/assets/Styles/assets/global/img/Mcenter.png,,
5000,مركز المراقبة الصحية بصالة 1 ,Health Surveillance Center in hall 1,phc,1,,,,,,,5,جدة,8,,,,,,,,,,,,,,,,,,,,,,39.172756,21.661419,https://eservices.moh.gov.sa/hospitals/assets/Styles/assets/global/img/Mcenter.png,,
5001,مركز المراقبة الصحية بالمطار الجديد,Health Surveillance Center in new airport,phc,1,,,,,,,5,جدة,8,,,,,,,,,,,,,,,,,,,,,,39.173261,21.662116,https://eservices.moh.gov.sa/hospitals/assets/Styles/assets/global/img/Mcenter.png,,
5021,مركز الأمير عبدالمجيد لأمراض الكلى بمستشفى الملك فهد العام ,Prince Abdulmajeed Center for kidney disease,PAMC,1,,,,,,,5,جدة,14,,,,,,,42,,,,,,,,6606111,2300,,,,,,39.165524,21.544934,https://eservices.moh.gov.sa/hospitals/assets/Styles/assets/global/img/SPCenter.png,,
5049,مجمع الخطوط السعودية الطبي العام ,Saudia Medical Services Company,SMSC,1,,,,,,,5,جدة,9,,,,,,,,,,,,,,,126862180,,,,,,,39.12693312,21.55568138,https://eservices.moh.gov.sa/hospitals/assets/Styles/assets/global/img/PHospital.png,,
5053,فرع الشبكة الشاملة للرعاية الطبية ,General network of healthcare providers GNP2 , GNP2,1,,,,50,,,5,جدة,3,,,,,,,50,,,,,,,,920019666,,,,,,,39.19440345,21.52691862,https://eservices.moh.gov.sa/hospitals/assets/Styles/assets/global/img/PHospital.png,,
5080,مركز المراقبة الصحية بميناء جدة الإسلامي,Healthe Serveillance Centere at Jeddah Islamic Port,hscj,1,,,,,,,5,جدة,14,,,,,,,6,,,,,,,,126476131,,,,,,,39.17207032,21.47115617,https://eservices.moh.gov.sa/hospitals/assets/Styles/assets/global/img/SPCenter.png,,
5087,مجمع واحة الشفاء الطبي - 3,Wahat Al Shifa Medical Complex - 3,WSHMC,1,,,,,,,5,جدة,15,,,,,,,,,,,,,,,1265629932,,,,,,,39.2189209,21.424467,https://eservices.moh.gov.sa/hospitals/assets/Styles/assets/global/img/GMCenter.png,,
5092,مركز الرعاية الصحية المنزلية,Home Health Care Center,HHCC,1,,,,,,,5,جدة,14,,,,,,,,,,,,,,,0122327596,,,,,,,39.24134318,21.50824481,https://eservices.moh.gov.sa/hospitals/assets/Styles/assets/global/img/SPCenter.png,,
5111,الهيئة الطبية العامة بجدة,General Medical Authority in Jeddah,GMAJ,1,,,,,,,758,آل طارق,1,,,,,,,,,,,,,,,,,,,,,,-1.0,-1.0,https://eservices.moh.gov.sa/hospitals/assets/Styles/assets/global/img/hospital.png,,
5135,مركز الرعاية الصحية الأولية طيبة الجنوبية,Southern Tiba Health center,STHc,1,,,,,,,3,مكة المكرمة,8,,,,,,,,,,,,,,,0558774538,,,JED-PHCC-TAIBAH@MOH.GOV.SA,,,,39.29794965,21.38596894,https://eservices.moh.gov.sa/hospitals/assets/Styles/assets/global/img/Mcenter.png,,
5138,فرع شركة مستشفى جدة الاهلي, Branch of jeddah national hospital, Bjnh,1,,,,,,,5,جدة,3,,,,,,,30,2021,,,,,,,0548222884,,,Admin.jnh2@jnhsa.com,,,,39.19844085,21.45772379,https://eservices.moh.gov.sa/hospitals/assets/Styles/assets/global/img/PHospital.png,,
5173,العيادة المتنقلة الصغيرة بجدة (1),Small MOBILE CLINIC Jeddah (1) ,SJeddah (1) ,1,,,,,,,169,رابغ,8,,,,,,,,,,,,,,,0124232644,,,,,,,39.03388252,22.77408899,https://eservices.moh.gov.sa/hospitals/assets/Styles/assets/global/img/Mcenter.png,,
5174,العيادة المتنقلة الصغيرة بجدة (2),Small MOBILE CLINIC Jeddah (2) ,SJeddah (2) ,1,,,,,,,5,جدة,8,,,,,,,,,,,,,,,177426085,,,,,,,40.8793945,20.44847485,https://eservices.moh.gov.sa/hospitals/assets/Styles/assets/global/img/Mcenter.png,,
5202,العيادة المتنقلة الكبيرة بجدة (1),lARGE MOBILE CLINIC Jeddah (1) ,MOBILE CLINIC Jeddah (1) ,1,,,,,,,135,الليث,8,,,,,,,,,,,,,,,177421915,,,,,,,40.27485857,20.14671198,https://eservices.moh.gov.sa/hospitals/assets/Styles/assets/global/img/Mcenter.png,,
5208,مركز صحي الصالحية,ALSALHIYAH PHC,SAL PHC,1,,,,,,,5,جدة,8,,,,,,,,2022,,,,,2022-06-15T05:29:09.403,,507387569,,,mhalrshdi@moh.gov.sa,,,,39.23090272,21.76782662,https://eservices.moh.gov.sa/hospitals/assets/Styles/assets/global/img/Mcenter.png,,
5209,مركز صحي الصواري,ALSAWARI PHCC,ALSAWARI PHCC,1,,,,,,,5,جدة,8,,,,,,,,,,,,,,,12285060,,,,,,,39.11225366,21.80134169,https://eservices.moh.gov.sa/hospitals/assets/Styles/assets/global/img/Mcenter.png,,
5210,مركز صحي الفردوس,ALFIRDAWS PHCC,ALFIRDAWS PHCC,1,,,,,,,5,جدة,8,,,,,,,,,,,,,,,12285060,,,,,,,39.11363582,21.7828512,https://eservices.moh.gov.sa/hospitals/assets/Styles/assets/global/img/Mcenter.png,,
5211,مركز صحي الواحة,Alwahah PHC,phc,1,,,,,,,5,جدة,8,,,,,,,,2022,2022,,,,,,,,,,,,,39.249047,21.562978,https://eservices.moh.gov.sa/hospitals/assets/Styles/assets/global/img/Mcenter.png,,
5212,مركز صحي الاجاويد ,alajawid,phc,1,,,,4,,,5,جدة,8,,,,,,,,,,,,,2022-07-24T06:06:22.903,,,,,,,,,39.296458,21.4131984,https://eservices.moh.gov.sa/hospitals/assets/Styles/assets/global/img/Mcenter.png,,
5218,المستشفى السعودي الألماني فرع شركة الشرق الأوسط للرعاية الصحية,Saudi German Hospital – MEACHO Branch ,HMB,1,,,,23,,,5,جدة,3,,,,,,20,,2022,,,,,,,920007997,,,oskayal@sghgroup.net,,,,39.26312,21.48712,https://eservices.moh.gov.sa/hospitals/assets/Styles/assets/global/img/PHospital.png,,
5222,مختبرات تبيانا,Tibyana Labs ,tll,1,,,,,,,5,جدة,12,,,,,,,,,,,,,2022-09-04T10:01:57.747,,920005756,,,info@tibyana.com,,,,39.1731496,21.5272166,https://eservices.moh.gov.sa/hospitals/assets/Styles/assets/global/img/PLab.png,,
5242,مختبر الدقة العالية للتحاليل الطبية فرع جدة,High Quality laboratory,hql,1,,,,,,,5,جدة,12,,,,,,,,,,,,,,,920014099,,,info@hqsaudilab.com,,,,39.15069729,21.55822319,https://eservices.moh.gov.sa/hospitals/assets/Styles/assets/global/img/PLab.png,,
5249,مختبرات العرب الطبية,Al Arab Medical Labs,arab,1,,,,,,,5,جدة,12,,,,,,,,,,,,,,,0504223454,,,m.albalbisi@alarablabs.com,,,,39.1440631,21.5823275,https://eservices.moh.gov.sa/hospitals/assets/Styles/assets/global/img/PLab.png,,
5262,مجمع حسين علي محسن السقاف لطب العيون وجراحة اليوم الواحد,Alsaggaf Eye Center And Day Surgery,Alsaggaf Eye Center ,1,,,,,,,5,جدة,16,,,,,,,,,,,,,2023-05-04T06:38:13.277,,920008969,,,,,,,-1.0,-1.0,https://eservices.moh.gov.sa/hospitals/assets/Styles/assets/global/img/SPCenter.png,,
5293,مستشفى أندلسية,Andalusia Hospital,AH,1,,,,54,,,5,جدة,3,,,,,,,54,,,,,,,,122166600,,,haialjamea@andalusiagroup.net,,,,-1.0,-1.0,https://eservices.moh.gov.sa/hospitals/assets/Styles/assets/global/img/PHospital.png,,
5315,مستشفى السلامة,Alsalamah Hospital,Almurjan company Hospital,1,,,,,,,5,جدة,3,,,,,,,100,,,,,,2024-03-06T06:59:00.76,,8002444499,,,,,,,39.11485224,21.62271244,https://eservices.moh.gov.sa/hospitals/assets/Styles/assets/global/img/PHospital.png,,
5334,مجمع صفوة السعودية الطبي,SAUDI SAFWA POLYCLINIC,SAUDI ,1,,,,,,,5,جدة,15,,,,,,,,,,,,,,,533889918,,,HR@SAUDI-SAFWA.COM,,,,39.19146584,21.51646784,https://eservices.moh.gov.sa/hospitals/assets/Styles/assets/global/img/GMCenter.png,,
5352,مركز صحي سجن النساء بإصلاحية جدة,Women's prison health center in Jeddah,Women's prison health center in Jeddah,1,,,,,,,5,جدة,9,,,,,,,,,,,,,,,122313774,,,,,,,39.20665768,21.98059321,https://eservices.moh.gov.sa/hospitals/assets/Styles/assets/global/img/PHospital.png,,
5353,مركز صحي بسجن جدة العام (الشميسي),Jeddah General Prison Health Center (Al-Shumaisi),Jeddah General Prison Health Center (Al-Shumaisi),1,,,,,,,5,جدة,9,,,,,,,,,,,,,,,556595966,,,,,,,39.5675742,21.34167396,https://eservices.moh.gov.sa/hospitals/assets/Styles/assets/global/img/PHospital.png,,
5356,مختبر دار الطب للتحاليل الطبية,Medicine House Laboratory,Med,1,,,,,,,5,جدة,12,,,,,,,,,,,,,,,0122610873,,,a.salam@mhlaboratory.com,,,,39.15643238,21.56001013,https://eservices.moh.gov.sa/hospitals/assets/Styles/assets/global/img/PLab.png,,
5385,شركة مستشفى غرب جدة,West Jeddah Hospital Company,West Jeddah Hospital Company,1,,,,,,,5,جدة,3,,,,,,,,,,,,,,,127444444,,,,,,,39.2156892,21.50919409,https://eservices.moh.gov.sa/hospitals/assets/Styles/assets/global/img/PHospital.png,,
5389,العيادة الطبية آر سي 2 - جدة,RC2 CLINIC ,Royal Clinics in jeddah,1,,,,,,,5,جدة,9,,,,,,,,,,,,,2025-05-04T17:17:35.77,,0122328888,,,,,,,39.1293664,21.5422355,https://eservices.moh.gov.sa/hospitals/assets/Styles/assets/global/img/PHospital.png,,
5391,مجمع الدكتور سعيد الطبي,Dr. Saeed Medical Complex,saeed,1,,,,,,,5,جدة,15,,,,,,,,,,,,,2024-06-10T14:26:06.243,,122522999,,,,,,,39.22574749,21.51352188,https://eservices.moh.gov.sa/hospitals/assets/Styles/assets/global/img/GMCenter.png,,
5415,مختبرات الخلايا الطبية,Medical Cells Labs,arc,1,,,,,,,5,جدة,12,,,,,,,,,,,,,,,920013094,,,s.alghuraybi@mclab.sa,,,,39.19744158,21.58488538,https://eservices.moh.gov.sa/hospitals/assets/Styles/assets/global/img/PLab.png,,
5444,مركز التأهيل الشامل للإناث بجدة,Comprehansive Rehabilitation Center- Female section,Comprehansive Rehabilitation Center- Female section,1,,,,,,,5,جدة,9,,,,,,,147,,,,,,2024-08-20T23:41:51.607,,126812241,,,,,,,39.24006818,21.48242384,https://eservices.moh.gov.sa/hospitals/assets/Styles/assets/global/img/PHospital.png,,
5445,مركز التأهيل الشامل للذكور بجده,COMPREHENSIVE REHABITATION CENTER FOR MALES IN JEDDAH,COMPREHENSIVE REHABITATION CENTER FOR MALES IN JEDDAH,1,,,,,,,5,جدة,9,,,,,,,281,,,,,,,,126812263,,,,,,,39.23482702,21.48290256,https://eservices.moh.gov.sa/hospitals/assets/Styles/assets/global/img/PHospital.png,,
5454,مركز جدة الطبي التابع لادارة الخدمات الطبية,Jeddah Medical Center,Jeddah Medical Center,1,,,,,,,5,جدة,9,,,,,,,,,,,,,,,0118166699,,,med.hr@csmail.edu.sa,,,,39.16183116,21.55768597,https://eservices.moh.gov.sa/hospitals/assets/Styles/assets/global/img/PHospital.png,,
5466,مركز مسار للتأهيل ,Masar center,Masar center,1,,,,,,,5,جدة,16,,,,,,,20,,,,,,,,920002300,,,info@masar.med.sa,,,,39.10459579,21.71360741,https://eservices.moh.gov.sa/hospitals/assets/Styles/assets/global/img/SPCenter.png,,
5486,مستشفى كينغز كوليدج لندن,Kings College Hospital London,Kings College Hospital London,1,,,,,,,5,جدة,3,,,,,,,150,,,,,,,,562118890,,,,,,,39.12605443,21.58091645,https://eservices.moh.gov.sa/hospitals/assets/Styles/assets/global/img/PHospital.png,,
5490,شركة حلول جدة للرعاية الطبية,Jeddah Healthcare Solution ,Jeddah Healthcare Solution ,1,,,,,,,5,جدة,3,,,,,,,150,,,,,,,,92006668,,,compliance.kchj@kch-hospitals.com,,,,39.12588236,21.58073293,https://eservices.moh.gov.sa/hospitals/assets/Styles/assets/global/img/PHospital.png,,
5514,مركز مجابهة الكوارث بجدة,DISASTER MANAGEMENT CENTER,DISASTER MANAGEMENT CENTER,1,,,,,,,5,جدة,14,,,,,,,,,,,,,,,126377661,,,FMSC-JEDDAH@MOH.GOV.SA,,,,39.20738742,21.44130644,https://eservices.moh.gov.sa/hospitals/assets/Styles/assets/global/img/SPCenter.png,,
0,مديرية الشؤون الصحية بمحافظة جدة,,,0,,,,,,,,,-1,,,,,,,,,,,,,,,,,,,,,,39.197983,21.525821,https://eservices.moh.gov.sa/hospitals/assets/Styles/assets/global/img/directorate.png,,
0,المديرية العامة للشؤون الصحية بمنطقة مكة المكرمة,,,0,,,,,,,,,-1,,,,,,,,,,,,,,,,,,,,,,39.850656,21.388653,https://eservices.moh.gov.sa/hospitals/assets/Styles/assets/global/img/directorate.png,,
0,مديرية الشؤون الصحية بمحافظة الطائف,,,0,,,,,,,,,-1,,,,,,,,,,,,,,,,,,,,,,40.3925663,21.2765913,https://eservices.moh.gov.sa/hospitals/assets/Styles/assets/global/img/directorate.png,,
0,مديرية الشؤون الصحية بمحافظة الإحساء ,,,0,,,,,,,,,-1,,,,,,,,,,,,,,,,,,,,,,49.5617747,25.3593324,https://eservices.moh.gov.sa/hospitals/assets/Styles/assets/global/img/directorate.png,,
0,مديرية الشؤون الصحية بمحافظة حفر الباطن,,,0,,,,,,,,,-1,,,,,,,,,,,,,,,,,,,,,,45.9684093,28.3628077,https://eservices.moh.gov.sa/hospitals/assets/Styles/assets/global/img/directorate.png,,
0,المديرية العامة للشؤون الصحية بمنطقة تبوك,,,0,,,,,,,,,-1,,,,,,,,,,,,,,,,,,,,,,36.5485579,28.3970821,https://eservices.moh.gov.sa/hospitals/assets/Styles/assets/global/img/directorate.png,,
0,مديرية الشؤون الصحية بمحافظة القريات,,,0,,,,,,,,,-1,,,,,,,,,,,,,,,,,,,,,,37.3589873,31.3315462,https://eservices.moh.gov.sa/hospitals/assets/Styles/assets/global/img/directorate.png,,
0,المديرية العامة للشؤون الصحية في الحدود الشمالية,,,0,,,,,,,,,-1,,,,,,,,,,,,,,,,,,,,,,41.0061908,30.974445,https://eservices.moh.gov.sa/hospitals/assets/Styles/assets/global/img/directorate.png,,
0,المديرية العامة للشؤون الصحية في الجوف,,,0,,,,,,,,,-1,,,,,,,,,,,,,,,,,,,,,,40.1903674,29.9478448,https://eservices.moh.gov.sa/hospitals/assets/Styles/assets/global/img/directorate.png,,
0,المديرية العامة للشؤون الصحية في المدينة المنورة,,,0,,,,,,,,,-1,,,,,,,,,,,,,,,,,,,,,,39.5556736,24.491425,https://eservices.moh.gov.sa/hospitals/assets/Styles/assets/global/img/directorate.png,,
0,المديرية العامة للشؤون الصحية بمنطقة الرياض,,,0,,,,,,,,,-1,,,,,,,,,,,,,,,966-11-4919196,,,,http://riyadhhealth.moh.gov.sa,,,46.762693,24.70015,https://eservices.moh.gov.sa/hospitals/assets/Styles/assets/global/img/directorate.png,,
0,المديرية العامة للشؤون الصحية بالمنطقة الشرقية,,,0,,,,,,,,,-1,,,,,,,,,,,,,,,,,,,,,,50.0818354,26.4122206,https://eservices.moh.gov.sa/hospitals/assets/Styles/assets/global/img/directorate.png,,
0,المديرية العامة للشؤون الصحية بالقصيم,,,0,,,,,,,,,-1,,,,,,,,,,,,,,,,,,,,,,43.9726248,26.3498467,https://eservices.moh.gov.sa/hospitals/assets/Styles/assets/global/img/directorate.png,,
0,المديرية العامة للشؤون الصحية في حائل,,,0,,,,,,,,,-1,,,,,,,,,,,,,,,,,,,,,,41.709431,27.4507569,https://eservices.moh.gov.sa/hospitals/assets/Styles/assets/global/img/directorate.png,,
0,المديرية العامة للشؤون الصحية في عسير,,,0,,,,,,,,,-1,,,,,,,,,,,,,,,,,,,,,,42.698799,18.892164,https://eservices.moh.gov.sa/hospitals/assets/Styles/assets/global/img/directorate.png,,
0,المديرية العامة للشؤون الصحية في جازان,,,0,,,,,,,,,-1,,,,,,,,,,,,,,,,,,,,,,42.5712543,16.8876077,https://eservices.moh.gov.sa/hospitals/assets/Styles/assets/global/img/directorate.png,,
0,المديرية العامة للشؤون الصحية في نجران,,,0,,,,,,,,,-1,,,,,,,,,,,,,,,,,,,,,,44.234961,17.548203,https://eservices.moh.gov.sa/hospitals/assets/Styles/assets/global/img/directorate.png,,
0,مديرية الشؤون الصحية في بيشة,,,0,,,,,,,,,-1,,,,,,,,,,,,,,,,,,,,,,42.6148662,20.0289017,https://eservices.moh.gov.sa/hospitals/assets/Styles/assets/global/img/directorate.png,,
0,المديرية العامة للشؤون الصحية في الباحة,,,0,,,,,,,,,-1,,,,,,,,,,,,,,,,,,,,,,41.4338867,20.1200084,https://eservices.moh.gov.sa/hospitals/assets/Styles/assets/global/img/directorate.png,,
0,مديرية الشؤون الصحية بمحافظة القنفذة,,,0,,,,,,,,,-1,,,,,,,,,,,,,,,,,,,,,,41.081935,19.1346859,https://eservices.moh.gov.sa/hospitals/assets/Styles/assets/global/img/directorate.png,,
0,وزارة الصحة,,,0,,,,,,,,,-999,,,,,,,,,,,,,,,937,,,,https://www.moh.gov.sa,,,46.713225,24.657336,https://eservices.moh.gov.sa/hospitals/assets/Styles/assets/global/img/moh.png,,
